{"type":"FeatureCollection","source":"U.S. Census Bureau, 2025 cartographic boundary file cb_2025_us_county_500k, South Carolina counties, simplified to ~0.004 degrees and rounded to 4 decimals","features":[{"type":"Feature","id":"45001","properties":{"name":"Abbeville"},"geometry":{"type":"Polygon","coordinates":[[[-82.742,34.2117],[-82.3139,34.4843],[-82.3145,34.4696],[-82.2879,34.4536],[-82.2778,34.4367],[-82.2661,34.4332],[-82.2614,34.4209],[-82.2463,34.4097],[-82.3342,34.3426],[-82.3238,34.3253],[-82.3111,34.3204],[-82.3071,34.2759],[-82.2653,34.2445],[-82.2482,34.2206],[-82.2401,34.1922],[-82.2406,34.1634],[-82.2498,34.1345],[-82.2688,34.1071],[-82.3269,34.0641],[-82.3766,34.0574],[-82.4527,34.0603],[-82.4836,34.0812],[-82.4996,34.0721],[-82.5305,34.0719],[-82.5945,34.0139],[-82.5942,34.0289],[-82.627,34.0635],[-82.6405,34.0679],[-82.6457,34.076],[-82.6416,34.0921],[-82.6588,34.104],[-82.6752,34.1298],[-82.7175,34.1505],[-82.742,34.2117]]]}},{"type":"Feature","id":"45003","properties":{"name":"Aiken"},"geometry":{"type":"Polygon","coordinates":[[[-82.0125,33.5321],[-81.5713,33.8775],[-81.5611,33.8628],[-81.5464,33.8586],[-81.5153,33.8135],[-81.4606,33.7973],[-81.4357,33.7757],[-81.4267,33.7431],[-81.4152,33.7321],[-81.3813,33.7252],[-81.3645,33.7281],[-81.3107,33.7085],[-81.2905,33.6942],[-81.2701,33.6939],[-81.2655,33.6871],[-81.1873,33.6529],[-81.3729,33.4904],[-81.7571,33.1981],[-81.774,33.2211],[-81.7801,33.2211],[-81.7775,33.2113],[-81.7845,33.2081],[-81.8065,33.2121],[-81.8092,33.2221],[-81.8279,33.2287],[-81.8529,33.2487],[-81.84,33.2546],[-81.8469,33.2666],[-81.8344,33.2584],[-81.8283,33.263],[-81.836,33.2635],[-81.8325,33.2756],[-81.8391,33.2739],[-81.8462,33.2843],[-81.8633,33.2892],[-81.86,33.2991],[-81.8487,33.2967],[-81.8476,33.3071],[-81.8561,33.3099],[-81.8639,33.302],[-81.8692,33.3138],[-81.8812,33.3025],[-81.8825,33.317],[-81.8925,33.3153],[-81.8892,33.3211],[-81.8986,33.3229],[-81.902,33.3359],[-81.9061,33.3216],[-81.9137,33.32],[-81.9081,33.3271],[-81.9189,33.335],[-81.9089,33.3463],[-81.9193,33.3403],[-81.9397,33.3449],[-81.9353,33.3568],[-81.9463,33.3706],[-81.9306,33.3682],[-81.9248,33.3741],[-81.9351,33.3972],[-81.9456,33.4058],[-81.9248,33.4124],[-81.9124,33.4081],[-81.9108,33.415],[-81.9323,33.4266],[-81.917,33.4326],[-81.9135,33.4413],[-81.9294,33.4658],[-81.9859,33.4865],[-82.0125,33.5321]]]}},{"type":"Feature","id":"45005","properties":{"name":"Allendale"},"geometry":{"type":"Polygon","coordinates":[[[-81.614,33.0953],[-81.5419,33.1583],[-81.3649,33.1081],[-81.2837,33.1086],[-81.2402,33.1187],[-81.1931,33.1187],[-81.1244,33.0532],[-81.1012,33.0491],[-81.0823,33.0266],[-81.237,32.9402],[-81.2377,32.9067],[-81.2601,32.903],[-81.2767,32.8921],[-81.2617,32.8391],[-81.3268,32.7909],[-81.3385,32.7685],[-81.4051,32.745],[-81.4198,32.7498],[-81.4084,32.7547],[-81.414,32.7554],[-81.4118,32.7631],[-81.4178,32.7602],[-81.4171,32.7661],[-81.4319,32.7689],[-81.4145,32.7781],[-81.4312,32.7841],[-81.4222,32.784],[-81.4274,32.7883],[-81.4197,32.7932],[-81.4283,32.8008],[-81.4227,32.802],[-81.4263,32.8099],[-81.418,32.8182],[-81.4271,32.8169],[-81.422,32.8215],[-81.4299,32.8282],[-81.4218,32.8293],[-81.4216,32.8352],[-81.4348,32.8435],[-81.4399,32.8404],[-81.4449,32.851],[-81.4517,32.8448],[-81.4607,32.846],[-81.4556,32.8465],[-81.4534,32.8739],[-81.4794,32.8811],[-81.4771,32.8875],[-81.4659,32.8895],[-81.4641,32.8978],[-81.4716,32.9],[-81.4721,32.8938],[-81.4808,32.8986],[-81.48,32.9134],[-81.487,32.9148],[-81.4832,32.9218],[-81.5024,32.9354],[-81.4994,32.945],[-81.5086,32.9526],[-81.5108,32.9685],[-81.4998,32.9638],[-81.4915,32.9954],[-81.5002,33.0035],[-81.4914,33.0081],[-81.5041,33.0163],[-81.5107,33.0103],[-81.5103,33.0212],[-81.5191,33.0232],[-81.5112,33.0278],[-81.5227,33.0308],[-81.5291,33.0408],[-81.5388,33.0392],[-81.5438,33.0486],[-81.5619,33.0458],[-81.5661,33.0488],[-81.5589,33.0529],[-81.564,33.0608],[-81.563,33.0558],[-81.5719,33.054],[-81.581,33.0627],[-81.5772,33.0659],[-81.6032,33.0744],[-81.5965,33.0799],[-81.6013,33.087],[-81.6129,33.081],[-81.6083,33.089],[-81.614,33.0953]]]}},{"type":"Feature","id":"45007","properties":{"name":"Anderson"},"geometry":{"type":"Polygon","coordinates":[[[-82.9922,34.4792],[-82.7876,34.6727],[-82.4851,34.8194],[-82.4751,34.8104],[-82.4766,34.8022],[-82.4609,34.7967],[-82.4597,34.7816],[-82.4521,34.7764],[-82.4655,34.7212],[-82.4574,34.7142],[-82.4654,34.706],[-82.4569,34.6992],[-82.4639,34.6856],[-82.4567,34.6803],[-82.4677,34.6671],[-82.4631,34.6558],[-82.4559,34.6573],[-82.4496,34.64],[-82.4529,34.6238],[-82.4382,34.6107],[-82.4438,34.6073],[-82.4283,34.5989],[-82.4196,34.5571],[-82.41,34.5466],[-82.3863,34.5393],[-82.3642,34.5154],[-82.344,34.5122],[-82.3438,34.5],[-82.3371,34.5018],[-82.3139,34.4843],[-82.742,34.2117],[-82.7467,34.2664],[-82.7818,34.2979],[-82.7947,34.3406],[-82.8348,34.3663],[-82.8588,34.4552],[-82.9016,34.4868],[-82.9922,34.4792]]]}},{"type":"Feature","id":"45009","properties":{"name":"Bamberg"},"geometry":{"type":"Polygon","coordinates":[[[-81.2278,33.1626],[-81.218,33.209],[-81.2208,33.2591],[-81.2132,33.3979],[-81.2227,33.44],[-81.2061,33.4373],[-81.1895,33.4117],[-81.164,33.4093],[-81.1113,33.3809],[-81.0886,33.3796],[-81.0478,33.3492],[-81.031,33.3489],[-81.0247,33.3389],[-81.0048,33.3363],[-80.9797,33.3181],[-80.9683,33.3188],[-80.9619,33.3081],[-80.9487,33.3093],[-80.9509,33.3052],[-80.9292,33.2956],[-80.926,33.2868],[-80.8852,33.2629],[-80.8876,33.2579],[-80.863,33.2511],[-80.8558,33.2377],[-80.8462,33.2383],[-80.8468,33.2211],[-80.8389,33.2192],[-80.8439,33.2121],[-80.8374,33.2109],[-80.8375,33.2037],[-80.8247,33.2016],[-80.817,33.1875],[-80.7979,33.1769],[-80.8954,33.1253],[-80.889,33.1022],[-80.8767,33.0934],[-80.8961,33.0614],[-80.906,33.0602],[-80.9372,33.1026],[-81.0823,33.0266],[-81.0985,33.0472],[-81.1244,33.0532],[-81.1487,33.0809],[-81.1708,33.0957],[-81.2101,33.1337],[-81.2278,33.1626]]]}},{"type":"Feature","id":"45011","properties":{"name":"Barnwell"},"geometry":{"type":"Polygon","coordinates":[[[-81.7717,33.1815],[-81.7661,33.1778],[-81.7677,33.1846],[-81.7571,33.1981],[-81.3748,33.4897],[-81.3397,33.4803],[-81.2969,33.4799],[-81.2537,33.4462],[-81.2222,33.4407],[-81.2132,33.3979],[-81.2208,33.2591],[-81.218,33.209],[-81.2278,33.1607],[-81.1931,33.1187],[-81.2402,33.1187],[-81.2837,33.1086],[-81.3649,33.1081],[-81.5419,33.1583],[-81.6141,33.0952],[-81.6423,33.0932],[-81.7217,33.1265],[-81.7631,33.1594],[-81.7717,33.1815]]]}},{"type":"Feature","id":"45013","properties":{"name":"Beaufort"},"geometry":{"type":"Polygon","coordinates":[[[-81.0161,32.2443],[-80.9917,32.2675],[-80.9975,32.2813],[-80.9942,32.2906],[-81.0064,32.3065],[-80.9349,32.3001],[-80.9245,32.3503],[-80.8921,32.3537],[-80.8909,32.3475],[-80.8776,32.3459],[-80.8685,32.3637],[-80.8737,32.3691],[-80.8419,32.3849],[-80.8423,32.3947],[-80.8292,32.4115],[-80.848,32.4116],[-80.8502,32.4163],[-80.8339,32.4569],[-80.8177,32.4657],[-80.8202,32.4908],[-80.8477,32.5301],[-80.836,32.544],[-80.8392,32.5575],[-80.8315,32.5934],[-80.8365,32.6088],[-80.8499,32.6165],[-80.8483,32.6326],[-80.8561,32.6348],[-80.8697,32.6609],[-80.8302,32.7036],[-80.8209,32.6962],[-80.8114,32.6974],[-80.8079,32.6894],[-80.7875,32.6882],[-80.7873,32.6825],[-80.7783,32.6869],[-80.7727,32.6762],[-80.7686,32.6815],[-80.7656,32.6753],[-80.7597,32.6796],[-80.7449,32.6742],[-80.7392,32.6823],[-80.7285,32.6737],[-80.7216,32.6802],[-80.7065,32.6732],[-80.7033,32.6646],[-80.6859,32.6728],[-80.6711,32.6716],[-80.6689,32.6636],[-80.6843,32.659],[-80.6816,32.6471],[-80.6763,32.6425],[-80.664,32.6457],[-80.6581,32.6376],[-80.674,32.6329],[-80.6751,32.6252],[-80.6544,32.6269],[-80.6598,32.6127],[-80.6478,32.5964],[-80.6308,32.5917],[-80.6254,32.5823],[-80.6099,32.59],[-80.5998,32.581],[-80.5798,32.5843],[-80.5762,32.5778],[-80.5842,32.5677],[-80.5652,32.5655],[-80.566,32.5509],[-80.5589,32.5552],[-80.5574,32.5662],[-80.5515,32.5658],[-80.5365,32.5292],[-80.5178,32.5191],[-80.5029,32.4957],[-80.477,32.4854],[-80.4813,32.4756],[-80.4769,32.4679],[-80.4846,32.461],[-80.4615,32.4129],[-80.4356,32.4125],[-80.4292,32.4055],[-80.4293,32.3897],[-80.4442,32.3549],[-80.454,32.3393],[-80.4636,32.3401],[-80.4533,32.3219],[-80.5039,32.3075],[-80.5762,32.2753],[-80.5885,32.2827],[-80.6237,32.2581],[-80.6454,32.2609],[-80.6448,32.2915],[-80.6885,32.3028],[-80.7081,32.3237],[-80.7336,32.3195],[-80.741,32.3038],[-80.7535,32.3068],[-80.766,32.2926],[-80.7613,32.28],[-80.7424,32.2638],[-80.7301,32.2705],[-80.7178,32.267],[-80.6778,32.2364],[-80.6692,32.2168],[-80.7399,32.1461],[-80.8125,32.1097],[-80.8424,32.1178],[-80.8738,32.0823],[-80.9105,32.0799],[-80.8957,32.1077],[-80.9283,32.1214],[-80.9073,32.131],[-80.9095,32.1347],[-80.9212,32.1301],[-80.9285,32.1386],[-80.9413,32.1373],[-80.9469,32.1288],[-80.9615,32.1262],[-80.958,32.1377],[-80.969,32.1477],[-80.961,32.1519],[-80.953,32.1416],[-80.9505,32.1613],[-80.9576,32.165],[-80.9486,32.1691],[-80.9618,32.1795],[-80.9693,32.1762],[-80.9624,32.185],[-80.9766,32.1853],[-80.9869,32.1934],[-80.9885,32.1897],[-80.9938,32.188],[-80.9904,32.1902],[-81.0001,32.1961],[-80.9942,32.1974],[-80.9982,32.2046],[-81.0124,32.2182],[-81.0161,32.2443]]]}},{"type":"Feature","id":"45015","properties":{"name":"Berkeley"},"geometry":{"type":"Polygon","coordinates":[[[-80.3613,33.2631],[-80.3574,33.2748],[-80.3489,33.278],[-80.3172,33.2641],[-80.3019,33.2675],[-80.2538,33.2993],[-80.2479,33.3382],[-80.2396,33.3522],[-80.2416,33.3831],[-80.2385,33.3912],[-80.2302,33.3841],[-80.2299,33.3916],[-80.2226,33.3913],[-80.2224,33.4478],[-80.204,33.4419],[-80.2082,33.4523],[-80.1981,33.4516],[-80.1975,33.4436],[-80.1817,33.4485],[-80.181,33.4546],[-80.1706,33.4497],[-80.1627,33.4607],[-80.1611,33.4488],[-80.1483,33.4499],[-80.1507,33.4603],[-80.1388,33.4542],[-80.1442,33.4641],[-80.132,33.464],[-80.1482,33.474],[-80.1521,33.4854],[-80.1273,33.4933],[-80.1255,33.5024],[-80.0959,33.4996],[-80.0959,33.4954],[-80.0938,33.503],[-80.0847,33.5],[-80.0799,33.5069],[-80.0487,33.5064],[-80.0425,33.5009],[-80.0253,33.5064],[-80.0205,33.4984],[-80.014,33.5051],[-80.0054,33.5025],[-80.0019,33.4947],[-79.9962,33.5068],[-79.9898,33.4983],[-79.9646,33.4986],[-79.9401,33.4757],[-79.9348,33.4777],[-79.9102,33.4557],[-79.9021,33.4553],[-79.9031,33.4504],[-79.8941,33.4537],[-79.8763,33.4353],[-79.8682,33.4345],[-79.8685,33.4293],[-79.8787,33.4271],[-79.8613,33.4178],[-79.8608,33.4085],[-79.8139,33.3823],[-79.8083,33.3733],[-79.7842,33.3761],[-79.7817,33.364],[-79.7554,33.3295],[-79.7348,33.3202],[-79.7096,33.3212],[-79.6643,33.2983],[-79.631,33.2929],[-79.6066,33.2793],[-79.5623,33.2725],[-79.5598,33.2605],[-79.5498,33.265],[-79.5458,33.2548],[-79.494,33.236],[-79.4793,33.2461],[-79.4829,33.2354],[-79.4707,33.2394],[-79.4739,33.2298],[-79.4587,33.2352],[-79.462,33.2294],[-79.4537,33.2278],[-79.4551,33.2177],[-79.4466,33.2118],[-79.4503,33.2073],[-79.474,33.2103],[-79.4837,33.2038],[-79.4864,33.1924],[-79.4928,33.1918],[-79.4975,33.177],[-79.5045,33.1771],[-79.513,33.1662],[-79.512,33.1581],[-79.522,33.1467],[-79.5339,33.1438],[-79.5623,33.1563],[-79.5979,33.142],[-79.6029,33.1338],[-79.6123,33.1384],[-79.6423,33.1244],[-79.6605,33.0908],[-79.7164,33.0386],[-79.7303,33.0126],[-79.7621,32.9891],[-79.7693,32.9716],[-79.7634,32.9563],[-79.7716,32.9418],[-79.7814,32.9438],[-79.826,32.9186],[-79.8359,32.9198],[-79.853,32.8761],[-79.8959,32.8599],[-79.8975,32.8269],[-79.919,32.8154],[-79.9297,32.8232],[-79.9312,32.85],[-79.9563,32.86],[-79.9637,32.8754],[-79.9624,32.8911],[-79.9476,32.9077],[-80.0118,32.8999],[-80.0415,32.955],[-80.0401,32.9827],[-80.056,32.9994],[-80.0982,32.9881],[-80.1051,32.9925],[-80.1027,33.0013],[-80.1134,32.9981],[-80.3359,33.1455],[-80.311,33.1584],[-80.2964,33.1795],[-80.3308,33.1984],[-80.3354,33.2245],[-80.3613,33.2631]]]}},{"type":"Feature","id":"45017","properties":{"name":"Calhoun"},"geometry":{"type":"Polygon","coordinates":[[[-81.0593,33.7654],[-81.0475,33.7894],[-81.0379,33.8709],[-81.0123,33.8801],[-80.9982,33.8768],[-81.0021,33.8631],[-80.9862,33.8575],[-80.9883,33.8498],[-80.9537,33.8427],[-80.9362,33.8264],[-80.9131,33.8329],[-80.9156,33.8114],[-80.8985,33.8088],[-80.8748,33.8155],[-80.8658,33.8027],[-80.8375,33.7939],[-80.8335,33.7855],[-80.8225,33.787],[-80.828,33.7762],[-80.8112,33.7797],[-80.783,33.7689],[-80.7849,33.761],[-80.7597,33.774],[-80.7562,33.7648],[-80.7473,33.7617],[-80.7516,33.7706],[-80.745,33.7764],[-80.7363,33.7674],[-80.7385,33.7564],[-80.7268,33.7683],[-80.7154,33.7605],[-80.7123,33.7712],[-80.7044,33.7665],[-80.7054,33.7598],[-80.6874,33.7611],[-80.6866,33.756],[-80.6547,33.7735],[-80.6564,33.7614],[-80.6404,33.7475],[-80.6209,33.745],[-80.6296,33.7389],[-80.6276,33.731],[-80.6153,33.7118],[-80.5931,33.7019],[-80.5966,33.695],[-80.5903,33.6848],[-80.5624,33.6784],[-80.5655,33.6647],[-80.53,33.6411],[-80.5292,33.6347],[-80.5404,33.628],[-80.52,33.6142],[-80.5198,33.5974],[-80.5014,33.5881],[-80.5162,33.5769],[-80.4963,33.5585],[-80.5056,33.5526],[-80.5033,33.5358],[-80.5401,33.5618],[-80.5514,33.5587],[-80.5523,33.5654],[-80.6036,33.5554],[-80.6103,33.5507],[-80.5882,33.5386],[-80.6247,33.4989],[-80.6197,33.4932],[-80.625,33.4888],[-80.6113,33.4704],[-80.6166,33.466],[-80.6273,33.4738],[-80.659,33.471],[-80.694,33.506],[-80.6941,33.5219],[-80.8076,33.6041],[-80.8814,33.6197],[-80.9197,33.6055],[-80.9398,33.6088],[-80.9421,33.6419],[-80.9655,33.6253],[-81.0429,33.7071],[-80.9915,33.7321],[-80.9557,33.7378],[-80.9456,33.7493],[-80.9246,33.7569],[-80.9336,33.7648],[-80.9619,33.779],[-81.014,33.7812],[-81.0235,33.7635],[-81.0329,33.7641],[-81.0361,33.7452],[-81.0585,33.7471],[-81.0593,33.7654]]]}},{"type":"Feature","id":"45019","properties":{"name":"Charleston"},"geometry":{"type":"MultiPolygon","coordinates":[[[[-79.5079,33.0201],[-79.5024,33.0206],[-79.501,33.0182],[-79.5031,33.0176],[-79.5079,33.0201]]],[[[-79.5522,32.9888],[-79.5487,32.993],[-79.5452,32.9907],[-79.5522,32.9888]]],[[[-80.182,32.5472],[-80.1845,32.5536],[-80.1772,32.5483],[-80.182,32.5472]]],[[[-80.4536,32.7405],[-80.4475,32.7627],[-80.4329,32.7785],[-80.4358,32.7882],[-80.4054,32.815],[-80.3941,32.8445],[-80.3994,32.8457],[-80.4013,32.8585],[-80.3017,32.8519],[-80.1493,32.8182],[-80.1608,32.8409],[-80.1837,32.8471],[-80.1857,32.8608],[-80.1767,32.8671],[-80.1613,32.8559],[-80.1549,32.8651],[-80.1622,32.8746],[-80.1497,32.8789],[-80.1448,32.8876],[-80.1366,32.8877],[-80.1377,32.8837],[-80.1254,32.8896],[-80.1228,32.9018],[-80.1197,32.894],[-80.1023,32.8931],[-80.0977,32.887],[-80.0798,32.9282],[-80.1413,32.9792],[-80.1105,32.9855],[-80.1355,32.9989],[-80.146,32.9843],[-80.1676,33.0026],[-80.1626,33.0105],[-80.1664,33.0127],[-80.17,33.0043],[-80.1764,33.01],[-80.17,33.0155],[-80.1645,33.0128],[-80.1607,33.0208],[-80.1492,33.0216],[-80.1134,32.9981],[-80.1027,33.0013],[-80.1051,32.9925],[-80.0982,32.9881],[-80.056,32.9994],[-80.0401,32.9827],[-80.0415,32.955],[-80.0118,32.8999],[-79.9476,32.9077],[-79.9624,32.8911],[-79.9637,32.8754],[-79.9563,32.86],[-79.9312,32.85],[-79.9297,32.8232],[-79.9138,32.8157],[-79.8962,32.8297],[-79.8959,32.8599],[-79.853,32.8761],[-79.8359,32.9198],[-79.826,32.9186],[-79.7814,32.9438],[-79.7716,32.9418],[-79.7634,32.9563],[-79.7693,32.9716],[-79.7621,32.9891],[-79.7303,33.0126],[-79.7164,33.0386],[-79.6605,33.0908],[-79.6423,33.1244],[-79.6123,33.1384],[-79.6029,33.1338],[-79.5979,33.142],[-79.5623,33.1563],[-79.5339,33.1438],[-79.522,33.1467],[-79.512,33.1581],[-79.513,33.1662],[-79.5045,33.1771],[-79.4975,33.177],[-79.4773,33.2089],[-79.4503,33.2073],[-79.4377,33.2152],[-79.4143,33.199],[-79.404,33.1838],[-79.3513,33.1535],[-79.3333,33.1558],[-79.3166,33.1461],[-79.2913,33.1466],[-79.2688,33.136],[-79.2756,33.1168],[-79.3282,33.0904],[-79.3623,33.0091],[-79.4231,33.0102],[-79.4011,33.0112],[-79.4044,33.0196],[-79.4073,33.0144],[-79.4833,33.0098],[-79.5069,33.0328],[-79.5252,33.0373],[-79.5711,33.0138],[-79.6176,32.9527],[-79.6075,32.9262],[-79.5898,32.9245],[-79.5741,32.9325],[-79.5811,32.9064],[-79.6311,32.8886],[-79.6981,32.8513],[-79.7038,32.836],[-79.7199,32.8258],[-79.7181,32.817],[-79.7264,32.806],[-79.814,32.7748],[-79.824,32.7627],[-79.8488,32.7536],[-79.8627,32.7615],[-79.8654,32.7749],[-79.878,32.7857],[-79.9232,32.7818],[-79.9285,32.7542],[-79.8791,32.7508],[-79.8709,32.7424],[-79.8701,32.73],[-79.8871,32.7019],[-79.8856,32.6849],[-79.9157,32.6649],[-79.9743,32.641],[-79.9922,32.611],[-80.0008,32.6059],[-80.0373,32.6102],[-80.0981,32.5983],[-80.1454,32.5781],[-80.1666,32.5602],[-80.195,32.56],[-80.2544,32.5321],[-80.2608,32.5365],[-80.2775,32.5236],[-80.291,32.5273],[-80.3182,32.5113],[-80.3229,32.5237],[-80.3483,32.5254],[-80.35,32.5187],[-80.3246,32.5037],[-80.3267,32.4931],[-80.3513,32.4987],[-80.3815,32.5302],[-80.4149,32.5465],[-80.4123,32.5569],[-80.3957,32.5617],[-80.3891,32.5738],[-80.3972,32.5919],[-80.3872,32.6151],[-80.3991,32.6183],[-80.4204,32.6042],[-80.428,32.6225],[-80.4075,32.6271],[-80.389,32.6523],[-80.4049,32.6524],[-80.4209,32.6701],[-80.4179,32.6807],[-80.4227,32.6885],[-80.4159,32.6947],[-80.4228,32.7146],[-80.4354,32.7131],[-80.4296,32.7204],[-80.4471,32.7284],[-80.4536,32.7405]]]]}},{"type":"Feature","id":"45021","properties":{"name":"Cherokee"},"geometry":{"type":"Polygon","coordinates":[[[-81.8744,35.1841],[-81.3666,35.1649],[-81.4025,35.1369],[-81.4088,35.0471],[-81.4714,35.0481],[-81.4886,35.0294],[-81.4806,35.0059],[-81.4837,34.9933],[-81.4758,34.983],[-81.4923,34.9472],[-81.4735,34.9355],[-81.4773,34.9261],[-81.4701,34.9136],[-81.4787,34.898],[-81.4684,34.8652],[-81.4536,34.8476],[-81.4571,34.8392],[-81.4836,34.8563],[-81.4819,34.8665],[-81.4996,34.8678],[-81.5149,34.8771],[-81.5227,34.8773],[-81.5299,34.8676],[-81.5346,34.8796],[-81.5435,34.8699],[-81.5872,34.8875],[-81.6267,34.8743],[-81.6406,34.8801],[-81.6472,34.9005],[-81.6776,34.9009],[-81.6853,34.913],[-81.702,34.9062],[-81.7299,34.9218],[-81.7347,34.9328],[-81.7552,34.9306],[-81.7857,35.0193],[-81.7943,35.0354],[-81.8076,35.0356],[-81.8061,35.0572],[-81.8744,35.1841]]]}},{"type":"Feature","id":"45023","properties":{"name":"Chester"},"geometry":{"type":"Polygon","coordinates":[[[-81.4883,34.7355],[-81.4529,34.7628],[-81.4593,34.7975],[-81.4693,34.8028],[-81.4691,34.811],[-81.48,34.8084],[-81.4874,34.8134],[-81.4766,34.8226],[-80.8982,34.8208],[-80.8764,34.7885],[-80.8777,34.7439],[-80.8599,34.7002],[-80.8886,34.6686],[-80.8875,34.6526],[-80.8965,34.6352],[-80.8893,34.6182],[-80.8922,34.598],[-80.8783,34.5811],[-80.873,34.553],[-80.8776,34.5431],[-80.9509,34.5454],[-81.4227,34.572],[-81.4269,34.5785],[-81.418,34.6041],[-81.4165,34.6353],[-81.442,34.6537],[-81.4543,34.6752],[-81.4542,34.7209],[-81.462,34.7265],[-81.4794,34.7239],[-81.4883,34.7355]]]}},{"type":"Feature","id":"45025","properties":{"name":"Chesterfield"},"geometry":{"type":"Polygon","coordinates":[[[-80.5641,34.8148],[-79.9307,34.8066],[-79.9346,34.7976],[-79.9281,34.7699],[-79.893,34.742],[-79.8594,34.6778],[-79.8408,34.6695],[-79.8305,34.6572],[-79.8169,34.6587],[-79.7956,34.6476],[-79.8006,34.6377],[-79.7776,34.6122],[-79.7895,34.6061],[-79.8031,34.6097],[-79.83,34.5319],[-79.8392,34.5346],[-79.862,34.521],[-79.8636,34.5087],[-79.8796,34.4935],[-79.9021,34.4892],[-79.9198,34.4958],[-79.9625,34.487],[-79.9834,34.5017],[-80.0265,34.4865],[-80.0455,34.4926],[-80.2886,34.3662],[-80.2855,34.3937],[-80.3022,34.3998],[-80.3114,34.4243],[-80.3211,34.4262],[-80.3263,34.4374],[-80.3227,34.4489],[-80.3285,34.4524],[-80.3303,34.5095],[-80.3536,34.5209],[-80.3548,34.5311],[-80.3723,34.5468],[-80.3772,34.5632],[-80.3715,34.5596],[-80.3862,34.5966],[-80.4073,34.6086],[-80.4057,34.613],[-80.4192,34.62],[-80.4139,34.6278],[-80.4328,34.6388],[-80.4318,34.66],[-80.4402,34.658],[-80.4394,34.6638],[-80.4534,34.6717],[-80.4503,34.6758],[-80.4608,34.677],[-80.4752,34.6992],[-80.4885,34.7046],[-80.4856,34.7174],[-80.5162,34.7589],[-80.5147,34.7666],[-80.5298,34.7711],[-80.5335,34.7829],[-80.5445,34.784],[-80.5641,34.8148]]]}},{"type":"Feature","id":"45027","properties":{"name":"Clarendon"},"geometry":{"type":"Polygon","coordinates":[[[-80.5405,33.629],[-80.5283,33.6367],[-80.5341,33.6439],[-80.4976,33.6743],[-80.4787,33.7143],[-80.4544,33.7135],[-80.4493,33.7375],[-80.4309,33.7383],[-80.4259,33.7241],[-80.4329,33.7212],[-80.4344,33.7119],[-80.392,33.7156],[-80.3971,33.7678],[-80.2712,33.7863],[-80.2554,33.8041],[-80.1954,33.839],[-80.1355,33.8688],[-80.1216,33.8696],[-79.9746,33.9465],[-79.9459,33.886],[-79.8756,33.8852],[-79.9153,33.8186],[-79.9445,33.8102],[-79.9956,33.7679],[-79.9744,33.7216],[-79.9932,33.7045],[-80.1017,33.4969],[-80.1255,33.5024],[-80.1273,33.4933],[-80.1521,33.4854],[-80.1482,33.474],[-80.132,33.464],[-80.1442,33.4641],[-80.1388,33.4542],[-80.1522,33.4594],[-80.1507,33.4482],[-80.1611,33.4488],[-80.1627,33.4607],[-80.1734,33.4487],[-80.181,33.4546],[-80.1817,33.4485],[-80.1975,33.4436],[-80.1981,33.4516],[-80.2074,33.4526],[-80.204,33.4419],[-80.2224,33.4478],[-80.2359,33.4396],[-80.2399,33.4547],[-80.2679,33.4379],[-80.282,33.4484],[-80.3236,33.4312],[-80.3489,33.4302],[-80.3902,33.444],[-80.437,33.478],[-80.4391,33.502],[-80.46,33.5029],[-80.4564,33.5122],[-80.4677,33.5162],[-80.468,33.525],[-80.4473,33.5245],[-80.4475,33.5405],[-80.4554,33.5471],[-80.4684,33.5411],[-80.485,33.56],[-80.4948,33.557],[-80.5045,33.5627],[-80.504,33.57],[-80.5161,33.5791],[-80.5022,33.5904],[-80.5198,33.5974],[-80.52,33.6142],[-80.5405,33.629]]]}},{"type":"Feature","id":"45029","properties":{"name":"Colleton"},"geometry":{"type":"Polygon","coordinates":[[[-81.0823,33.0266],[-80.9372,33.1026],[-80.906,33.0602],[-80.8961,33.0614],[-80.8767,33.0934],[-80.889,33.1022],[-80.8954,33.1253],[-80.7908,33.1812],[-80.792,33.1762],[-80.772,33.1716],[-80.7461,33.1745],[-80.7437,33.1682],[-80.7345,33.1701],[-80.7031,33.1525],[-80.7053,33.147],[-80.6916,33.1375],[-80.693,33.1287],[-80.6786,33.1216],[-80.6704,33.1036],[-80.6273,33.0759],[-80.6227,33.0663],[-80.5915,33.0578],[-80.5505,33.0582],[-80.5446,33.062],[-80.5474,33.0658],[-80.5322,33.0697],[-80.5261,33.0612],[-80.5097,33.0573],[-80.4912,33.0638],[-80.4754,33.06],[-80.4748,33.0644],[-80.4521,33.0622],[-80.4396,33.0489],[-80.4226,33.0548],[-80.412,33.0466],[-80.4007,33.0528],[-80.3878,33.0328],[-80.4065,33.019],[-80.4087,32.9846],[-80.4143,32.9842],[-80.4188,32.9673],[-80.4052,32.9551],[-80.4073,32.946],[-80.4026,32.947],[-80.3994,32.936],[-80.4064,32.9102],[-80.3975,32.8939],[-80.3929,32.896],[-80.3853,32.8861],[-80.3962,32.883],[-80.4033,32.8696],[-80.3994,32.8457],[-80.3941,32.8445],[-80.4054,32.815],[-80.4358,32.7882],[-80.4329,32.7785],[-80.4475,32.7627],[-80.4536,32.7405],[-80.4471,32.7284],[-80.4296,32.7204],[-80.4354,32.7131],[-80.4228,32.7146],[-80.4159,32.6947],[-80.4227,32.6885],[-80.4179,32.6807],[-80.4209,32.6701],[-80.4049,32.6524],[-80.389,32.6523],[-80.4075,32.6271],[-80.428,32.6225],[-80.4204,32.6042],[-80.3991,32.6183],[-80.3872,32.6151],[-80.3972,32.5919],[-80.3891,32.5738],[-80.3937,32.5633],[-80.4123,32.5569],[-80.4153,32.5479],[-80.3815,32.5302],[-80.3513,32.4987],[-80.3368,32.4932],[-80.3267,32.4931],[-80.3246,32.5037],[-80.35,32.5187],[-80.3483,32.5254],[-80.3229,32.5237],[-80.3191,32.5111],[-80.2848,32.5296],[-80.2775,32.5236],[-80.2608,32.5365],[-80.2544,32.5321],[-80.3324,32.4781],[-80.3384,32.4787],[-80.3467,32.4945],[-80.3604,32.4998],[-80.3926,32.4753],[-80.4135,32.4707],[-80.4216,32.4948],[-80.4441,32.5049],[-80.4721,32.497],[-80.477,32.4854],[-80.5029,32.4957],[-80.5178,32.5191],[-80.5365,32.5292],[-80.5515,32.5658],[-80.5574,32.5662],[-80.5589,32.5552],[-80.566,32.5509],[-80.5652,32.5655],[-80.5842,32.5677],[-80.5762,32.5778],[-80.5798,32.5843],[-80.5998,32.581],[-80.6099,32.59],[-80.6209,32.5812],[-80.6308,32.5917],[-80.6478,32.5964],[-80.6607,32.6151],[-80.6544,32.6269],[-80.6751,32.6252],[-80.674,32.6329],[-80.6586,32.6351],[-80.6607,32.6433],[-80.6782,32.6427],[-80.6845,32.6546],[-80.6805,32.6628],[-80.6689,32.6636],[-80.6711,32.6716],[-80.6859,32.6728],[-80.7033,32.6646],[-80.7184,32.6795],[-80.7285,32.6737],[-80.7392,32.6823],[-80.7449,32.6742],[-80.7597,32.6796],[-80.7656,32.6753],[-80.7686,32.6815],[-80.7727,32.6762],[-80.7783,32.6869],[-80.7873,32.6825],[-80.7875,32.6882],[-80.8,32.6869],[-80.8114,32.6974],[-80.8227,32.6969],[-80.8456,32.7208],[-80.8662,32.7756],[-80.8958,32.8106],[-80.9001,32.8326],[-80.9455,32.8764],[-80.9588,32.8767],[-80.9685,32.8906],[-80.9872,32.9011],[-81.0135,32.9548],[-81.0533,32.9896],[-81.0647,33.0136],[-81.0823,33.0266]]]}},{"type":"Feature","id":"45031","properties":{"name":"Darlington"},"geometry":{"type":"Polygon","coordinates":[[[-80.2887,34.3641],[-80.0455,34.4926],[-80.0265,34.4865],[-79.9834,34.5017],[-79.9625,34.487],[-79.9198,34.4958],[-79.8942,34.4891],[-79.8748,34.4963],[-79.8636,34.5087],[-79.862,34.521],[-79.8361,34.5351],[-79.83,34.5319],[-79.8334,34.5103],[-79.8061,34.4846],[-79.7964,34.4916],[-79.788,34.4843],[-79.7829,34.4978],[-79.7691,34.4965],[-79.7705,34.5085],[-79.7633,34.5191],[-79.7521,34.5135],[-79.7544,34.5041],[-79.7266,34.4955],[-79.7218,34.4854],[-79.7324,34.4771],[-79.7317,34.4664],[-79.7518,34.4665],[-79.7506,34.4368],[-79.7276,34.417],[-79.7184,34.4171],[-79.7213,34.3925],[-79.7126,34.4021],[-79.7035,34.3993],[-79.6997,34.4066],[-79.6834,34.3991],[-79.6909,34.3897],[-79.6894,34.3818],[-79.6737,34.3711],[-79.6927,34.3565],[-79.6604,34.3223],[-79.6626,34.3119],[-79.6568,34.3091],[-79.6707,34.304],[-79.6856,34.2844],[-79.7296,34.2952],[-79.7526,34.2506],[-79.7494,34.2451],[-79.809,34.2524],[-80.0722,34.0853],[-80.1072,34.1152],[-80.1345,34.1285],[-80.1586,34.1616],[-80.1127,34.197],[-80.1117,34.2286],[-80.1358,34.2725],[-80.1339,34.2824],[-80.1702,34.316],[-80.1772,34.3662],[-80.1913,34.3667],[-80.2063,34.3391],[-80.2436,34.3239],[-80.2529,34.3407],[-80.2756,34.3492],[-80.2887,34.3641]]]}},{"type":"Feature","id":"45033","properties":{"name":"Dillon"},"geometry":{"type":"Polygon","coordinates":[[[-79.6334,34.298],[-79.45,34.621],[-79.0713,34.2993],[-79.0783,34.2927],[-79.0861,34.295],[-79.0864,34.285],[-79.11,34.2724],[-79.1257,34.2533],[-79.1735,34.2875],[-79.2143,34.2555],[-79.2394,34.2543],[-79.2944,34.277],[-79.3054,34.2693],[-79.3803,34.3006],[-79.411,34.3002],[-79.4807,34.2881],[-79.4791,34.2786],[-79.4963,34.2748],[-79.5124,34.2575],[-79.5543,34.2476],[-79.5479,34.2309],[-79.5616,34.2579],[-79.5872,34.2814],[-79.6239,34.3006],[-79.6334,34.298]]]}},{"type":"Feature","id":"45035","properties":{"name":"Dorchester"},"geometry":{"type":"Polygon","coordinates":[[[-80.7899,33.1794],[-80.5028,33.3345],[-80.4947,33.3238],[-80.494,33.2975],[-80.4756,33.2749],[-80.4271,33.2578],[-80.3919,33.2646],[-80.3484,33.2489],[-80.3469,33.2361],[-80.3354,33.2245],[-80.3308,33.1984],[-80.2964,33.1795],[-80.311,33.1584],[-80.3359,33.1455],[-80.1492,33.0216],[-80.1764,33.01],[-80.17,33.0043],[-80.1664,33.0127],[-80.1626,33.0105],[-80.1676,33.0026],[-80.146,32.9843],[-80.1355,32.9989],[-80.1105,32.9855],[-80.1306,32.979],[-80.1392,32.9818],[-80.1413,32.9792],[-80.0798,32.9282],[-80.0977,32.887],[-80.1023,32.8931],[-80.1197,32.894],[-80.1228,32.9018],[-80.1254,32.8896],[-80.1377,32.8837],[-80.1366,32.8877],[-80.1448,32.8876],[-80.1497,32.8789],[-80.1622,32.8746],[-80.1549,32.8651],[-80.1613,32.8559],[-80.1767,32.8671],[-80.1857,32.8608],[-80.1837,32.8471],[-80.1608,32.8409],[-80.1493,32.8182],[-80.3017,32.8519],[-80.4013,32.8585],[-80.4033,32.8696],[-80.3962,32.883],[-80.3853,32.8861],[-80.3929,32.896],[-80.3975,32.8939],[-80.4064,32.9102],[-80.3994,32.936],[-80.4026,32.947],[-80.4073,32.946],[-80.4052,32.9551],[-80.4188,32.9673],[-80.4143,32.9842],[-80.4087,32.9846],[-80.4065,33.019],[-80.3878,33.0328],[-80.4007,33.0528],[-80.412,33.0466],[-80.4226,33.0548],[-80.4396,33.0489],[-80.4521,33.0622],[-80.4748,33.0644],[-80.4754,33.06],[-80.4912,33.0638],[-80.5097,33.0573],[-80.5261,33.0612],[-80.5322,33.0697],[-80.5474,33.0658],[-80.5446,33.062],[-80.5505,33.0582],[-80.5915,33.0578],[-80.6181,33.0648],[-80.6704,33.1036],[-80.6786,33.1216],[-80.693,33.1287],[-80.6916,33.1375],[-80.7053,33.147],[-80.7031,33.1525],[-80.7345,33.1701],[-80.7437,33.1682],[-80.7461,33.1745],[-80.7622,33.1703],[-80.7899,33.1794]]]}},{"type":"Feature","id":"45037","properties":{"name":"Edgefield"},"geometry":{"type":"Polygon","coordinates":[[[-82.1826,33.7266],[-82.1643,33.7413],[-82.1729,33.7647],[-82.1533,33.7826],[-82.1596,33.7914],[-82.1479,33.7898],[-82.1502,33.7938],[-82.1341,33.8102],[-82.139,33.8185],[-82.1137,33.8299],[-82.1546,33.8817],[-82.1591,33.898],[-82.1483,33.9028],[-82.1556,33.9289],[-81.932,33.9769],[-81.8946,33.9754],[-81.8704,33.892],[-81.8368,33.8665],[-81.8234,33.8674],[-81.7766,33.846],[-81.6518,33.8145],[-82.0125,33.5321],[-82.0463,33.5638],[-82.1153,33.5966],[-82.0955,33.6339],[-82.1105,33.6553],[-82.1309,33.6588],[-82.1345,33.6739],[-82.1482,33.6765],[-82.1453,33.6861],[-82.1658,33.6901],[-82.1826,33.7266]]]}},{"type":"Feature","id":"45039","properties":{"name":"Fairfield"},"geometry":{"type":"Polygon","coordinates":[[[-81.4269,34.534],[-81.4227,34.572],[-80.8776,34.5431],[-80.8817,34.5001],[-80.8987,34.4867],[-80.8882,34.4679],[-80.8332,34.4148],[-80.7935,34.4133],[-80.7832,34.4065],[-80.7836,34.3888],[-80.7699,34.3771],[-80.8259,34.2688],[-80.9619,34.252],[-81.0392,34.2325],[-81.0575,34.2337],[-81.0612,34.228],[-81.0699,34.2322],[-81.0708,34.2251],[-81.0768,34.2209],[-81.0833,34.2248],[-81.0959,34.2139],[-81.1812,34.2203],[-81.1684,34.1977],[-81.1795,34.1866],[-81.1783,34.1746],[-81.2264,34.2057],[-81.2513,34.2029],[-81.2841,34.233],[-81.3142,34.2377],[-81.3423,34.2669],[-81.3453,34.2792],[-81.3396,34.2922],[-81.354,34.3029],[-81.3652,34.3227],[-81.3715,34.3504],[-81.3965,34.3898],[-81.4212,34.4538],[-81.4125,34.4699],[-81.4224,34.4822],[-81.4269,34.534]]]}},{"type":"Feature","id":"45041","properties":{"name":"Florence"},"geometry":{"type":"Polygon","coordinates":[[[-80.0699,34.0862],[-79.809,34.2524],[-79.7494,34.2451],[-79.7526,34.2506],[-79.7296,34.2952],[-79.6856,34.2844],[-79.6624,34.3076],[-79.6311,34.2968],[-79.6239,34.3006],[-79.5767,34.2726],[-79.5616,34.2579],[-79.544,34.2252],[-79.5485,34.2041],[-79.5718,34.1837],[-79.544,34.1517],[-79.5416,34.1392],[-79.5326,34.1357],[-79.5325,34.1263],[-79.5172,34.1268],[-79.5246,34.1156],[-79.5145,34.1055],[-79.5198,34.1024],[-79.5153,34.0972],[-79.5291,34.1002],[-79.5303,34.0793],[-79.5359,34.0761],[-79.5114,34.0409],[-79.5089,34.0037],[-79.5169,33.994],[-79.4998,33.9713],[-79.4815,33.9647],[-79.4917,33.9465],[-79.4754,33.938],[-79.4737,33.93],[-79.4629,33.9318],[-79.4596,33.9208],[-79.452,33.9246],[-79.4522,33.9148],[-79.429,33.8978],[-79.4004,33.8922],[-79.4098,33.8853],[-79.3895,33.8732],[-79.3888,33.8649],[-79.3683,33.8429],[-79.3535,33.8412],[-79.3538,33.8341],[-79.3492,33.8421],[-79.3398,33.8415],[-79.332,33.8366],[-79.3369,33.8326],[-79.3152,33.8268],[-79.3195,33.8225],[-79.3141,33.8167],[-79.3173,33.7993],[-79.3404,33.8028],[-79.3522,33.8151],[-79.3826,33.8186],[-79.3972,33.8012],[-79.4187,33.7994],[-79.4415,33.7844],[-79.4712,33.7841],[-79.4965,33.7754],[-79.6349,33.8084],[-79.6358,33.818],[-79.6773,33.8147],[-79.688,33.8049],[-79.6996,33.814],[-79.7249,33.8146],[-79.7434,33.8351],[-79.7984,33.8356],[-79.8349,33.8826],[-79.8549,33.8917],[-79.8664,33.8843],[-79.9,33.8891],[-79.944,33.8851],[-79.9746,33.9465],[-79.8942,33.9897],[-79.9109,34.0065],[-79.9246,34.0075],[-79.9362,34.018],[-79.9475,34.0181],[-79.9469,34.023],[-79.9598,34.0214],[-79.9921,34.0398],[-80.0319,34.0768],[-80.0699,34.0862]]]}},{"type":"Feature","id":"45043","properties":{"name":"Georgetown"},"geometry":{"type":"Polygon","coordinates":[[[-79.6809,33.3196],[-79.6772,33.3368],[-79.6338,33.3726],[-79.596,33.4215],[-79.5901,33.4435],[-79.5453,33.4909],[-79.4963,33.5175],[-79.4833,33.5368],[-79.4359,33.5725],[-79.4425,33.596],[-79.4198,33.6485],[-79.4111,33.6858],[-79.3324,33.7771],[-79.317,33.7799],[-79.3088,33.772],[-79.2933,33.7523],[-79.294,33.7411],[-79.2862,33.7374],[-79.2916,33.729],[-79.2872,33.7188],[-79.2711,33.7216],[-79.2751,33.7089],[-79.265,33.7103],[-79.2676,33.7034],[-79.2424,33.7059],[-79.2493,33.697],[-79.2347,33.6942],[-79.2165,33.7017],[-79.218,33.7058],[-79.2128,33.7001],[-79.1962,33.7013],[-79.1994,33.7101],[-79.1783,33.7022],[-79.1803,33.6954],[-79.1573,33.6848],[-79.1519,33.6762],[-79.1533,33.6594],[-79.1364,33.6638],[-79.1295,33.6501],[-79.1239,33.6522],[-79.1273,33.6436],[-79.1351,33.6467],[-79.1233,33.6232],[-79.1222,33.6057],[-79.1091,33.6003],[-79.1045,33.6111],[-79.0998,33.609],[-79.1011,33.573],[-79.0018,33.5727],[-79.0286,33.5334],[-79.0388,33.5315],[-79.044,33.5192],[-79.0846,33.4837],[-79.1354,33.4039],[-79.1585,33.3367],[-79.1721,33.3291],[-79.1638,33.312],[-79.1803,33.2541],[-79.1757,33.2111],[-79.1832,33.1908],[-79.1945,33.1698],[-79.2464,33.126],[-79.2756,33.1168],[-79.2679,33.1327],[-79.2724,33.1397],[-79.2913,33.1466],[-79.3151,33.1457],[-79.3333,33.1558],[-79.3513,33.1535],[-79.404,33.1838],[-79.4275,33.2098],[-79.4551,33.2177],[-79.4517,33.2254],[-79.462,33.2294],[-79.4587,33.2352],[-79.4739,33.2298],[-79.4707,33.2394],[-79.4829,33.2354],[-79.4793,33.2461],[-79.494,33.236],[-79.5302,33.2475],[-79.5458,33.2548],[-79.5498,33.265],[-79.5611,33.2615],[-79.5577,33.2686],[-79.5623,33.2725],[-79.6066,33.2793],[-79.631,33.2929],[-79.6643,33.2983],[-79.677,33.3049],[-79.6727,33.3107],[-79.6809,33.3196]]]}},{"type":"Feature","id":"45045","properties":{"name":"Greenville"},"geometry":{"type":"Polygon","coordinates":[[[-82.7641,35.0682],[-82.7542,35.0696],[-82.7518,35.0799],[-82.7384,35.0795],[-82.727,35.0941],[-82.7005,35.1008],[-82.6977,35.0957],[-82.6865,35.1082],[-82.6936,35.1169],[-82.6814,35.1279],[-82.6746,35.1264],[-82.6733,35.1175],[-82.6624,35.1181],[-82.641,35.1323],[-82.629,35.1262],[-82.6124,35.1382],[-82.5699,35.1453],[-82.5464,35.1637],[-82.53,35.1556],[-82.4601,35.1781],[-82.4516,35.1727],[-82.4571,35.1639],[-82.4396,35.1659],[-82.4268,35.1789],[-82.4197,35.1986],[-82.3929,35.2154],[-82.384,35.2105],[-82.3787,35.1981],[-82.3822,35.1896],[-82.3713,35.1814],[-82.3615,35.1908],[-82.3446,35.1931],[-82.3234,35.1848],[-82.2825,35.1999],[-82.2159,35.196],[-82.2265,34.8507],[-82.2194,34.8534],[-82.194,34.8331],[-82.1734,34.806],[-82.1652,34.8069],[-82.1625,34.8026],[-82.1702,34.8026],[-82.1688,34.7971],[-82.157,34.7924],[-82.1535,34.782],[-82.1456,34.7852],[-82.2348,34.5888],[-82.2361,34.5353],[-82.3139,34.4843],[-82.3371,34.5018],[-82.3438,34.5],[-82.344,34.5122],[-82.3642,34.5154],[-82.3863,34.5393],[-82.41,34.5466],[-82.4196,34.5571],[-82.4283,34.5989],[-82.4438,34.6073],[-82.4382,34.6107],[-82.4529,34.6238],[-82.4496,34.64],[-82.4559,34.6573],[-82.4631,34.6558],[-82.4677,34.6671],[-82.4567,34.6803],[-82.4639,34.6856],[-82.4569,34.6992],[-82.4654,34.706],[-82.4574,34.7142],[-82.4655,34.7212],[-82.4521,34.7764],[-82.4597,34.7816],[-82.4609,34.7967],[-82.4766,34.8022],[-82.4751,34.8104],[-82.487,34.819],[-82.4764,34.8279],[-82.487,34.8306],[-82.4808,34.8425],[-82.4891,34.8411],[-82.483,34.8579],[-82.489,34.8614],[-82.4877,34.8858],[-82.4965,34.8876],[-82.4939,34.8961],[-82.5028,34.9037],[-82.5008,34.9101],[-82.5182,34.9204],[-82.5274,34.9659],[-82.5481,34.9787],[-82.5341,34.9838],[-82.5432,35.0046],[-82.5379,35.0155],[-82.5956,35.0101],[-82.5883,35.021],[-82.5923,35.0277],[-82.5857,35.0324],[-82.5903,35.0442],[-82.5982,35.0385],[-82.5977,35.0543],[-82.5905,35.0637],[-82.5743,35.0646],[-82.5716,35.0746],[-82.6114,35.0723],[-82.6414,35.0601],[-82.6596,35.0671],[-82.7078,35.062],[-82.7384,35.047],[-82.7494,35.0476],[-82.7641,35.0682]]]}},{"type":"Feature","id":"45047","properties":{"name":"Greenwood"},"geometry":{"type":"Polygon","coordinates":[[[-82.3342,34.3426],[-82.2463,34.4097],[-82.2446,34.4034],[-82.2284,34.4024],[-82.2313,34.3925],[-82.2215,34.3912],[-82.213,34.3785],[-82.1969,34.375],[-82.1969,34.3694],[-82.178,34.3581],[-82.1687,34.3301],[-82.134,34.3238],[-82.1217,34.3034],[-82.1107,34.3081],[-82.0845,34.2998],[-82.0489,34.2673],[-82.0311,34.2624],[-82.0093,34.2425],[-81.9784,34.2381],[-81.9711,34.2222],[-81.9391,34.1955],[-81.9205,34.192],[-81.917,34.177],[-81.9054,34.1781],[-81.9077,34.1619],[-81.8986,34.1564],[-81.8972,34.1463],[-81.8685,34.1324],[-81.897,34.1069],[-81.9003,34.095],[-81.9158,34.091],[-81.9473,34.0371],[-81.9899,33.9971],[-82.0078,33.9613],[-82.047,33.9532],[-82.0451,33.9834],[-82.0761,33.9788],[-82.1511,33.9865],[-82.1677,33.9731],[-82.1844,33.9744],[-82.2208,33.9911],[-82.2437,34.0179],[-82.3059,33.9718],[-82.3269,34.0641],[-82.2688,34.1071],[-82.2498,34.1345],[-82.2406,34.1634],[-82.2401,34.1922],[-82.2482,34.2206],[-82.2653,34.2445],[-82.3071,34.2759],[-82.3111,34.3204],[-82.3238,34.3253],[-82.3342,34.3426]]]}},{"type":"Feature","id":"45049","properties":{"name":"Hampton"},"geometry":{"type":"Polygon","coordinates":[[[-81.4275,32.7022],[-81.4259,32.71],[-81.4151,32.7137],[-81.4203,32.7211],[-81.41,32.7219],[-81.4178,32.7251],[-81.4127,32.7391],[-81.3385,32.7685],[-81.3268,32.7909],[-81.2617,32.8391],[-81.2767,32.8921],[-81.2601,32.903],[-81.2377,32.9067],[-81.237,32.9402],[-81.0823,33.0266],[-81.0647,33.0136],[-81.0533,32.9896],[-81.0135,32.9548],[-80.9872,32.9011],[-80.9685,32.8906],[-80.9588,32.8767],[-80.9455,32.8764],[-80.9001,32.8326],[-80.8958,32.8106],[-80.8662,32.7756],[-80.8456,32.7208],[-80.8263,32.7043],[-80.8372,32.6998],[-80.9024,32.6216],[-80.929,32.6363],[-80.9587,32.6425],[-80.963,32.6522],[-80.95,32.6615],[-80.9459,32.6873],[-80.9648,32.6951],[-80.9765,32.7209],[-80.9953,32.7305],[-81.0146,32.7531],[-81.2889,32.5512],[-81.2913,32.5627],[-81.2967,32.5534],[-81.298,32.563],[-81.3218,32.5595],[-81.3548,32.5711],[-81.3577,32.5821],[-81.367,32.577],[-81.3636,32.5818],[-81.3698,32.5912],[-81.381,32.5897],[-81.4112,32.6177],[-81.4184,32.6347],[-81.4134,32.6374],[-81.4082,32.6313],[-81.4027,32.637],[-81.4126,32.6415],[-81.393,32.6515],[-81.4072,32.6605],[-81.3975,32.6626],[-81.4039,32.6669],[-81.401,32.6775],[-81.4096,32.697],[-81.4124,32.6921],[-81.4275,32.7022]]]}},{"type":"Feature","id":"45051","properties":{"name":"Horry"},"geometry":{"type":"Polygon","coordinates":[[[-79.3388,33.9705],[-79.3284,33.9868],[-79.3325,33.995],[-79.3285,34.0002],[-79.3151,33.9965],[-79.3072,34.0059],[-79.3076,34.0277],[-79.2651,34.044],[-79.2478,34.0571],[-79.2483,34.0664],[-79.2396,34.0768],[-79.2481,34.0795],[-79.2501,34.0904],[-79.2301,34.1088],[-79.2209,34.1077],[-79.2193,34.1262],[-79.2058,34.133],[-79.2075,34.1548],[-79.1973,34.1587],[-79.1929,34.1751],[-79.1769,34.1848],[-79.1736,34.1795],[-79.1539,34.2072],[-79.1451,34.2061],[-79.1422,34.2139],[-79.1341,34.2153],[-79.1357,34.2291],[-79.1267,34.2361],[-79.1348,34.241],[-79.1264,34.2573],[-79.121,34.2551],[-79.11,34.2724],[-79.0937,34.278],[-79.0861,34.295],[-79.0783,34.2927],[-79.0713,34.2993],[-78.5473,33.8565],[-78.5546,33.8492],[-78.5917,33.8434],[-78.6977,33.808],[-78.7958,33.7551],[-78.9141,33.6616],[-79.0018,33.5727],[-79.1011,33.573],[-79.0998,33.609],[-79.1045,33.6111],[-79.1091,33.6003],[-79.1213,33.6048],[-79.1233,33.6232],[-79.1337,33.6357],[-79.1297,33.6406],[-79.1349,33.6485],[-79.1273,33.6436],[-79.1239,33.6522],[-79.1295,33.6501],[-79.1364,33.6638],[-79.1533,33.6594],[-79.1519,33.6762],[-79.1573,33.6848],[-79.1914,33.7065],[-79.1959,33.7279],[-79.2204,33.7483],[-79.2182,33.7551],[-79.2334,33.7618],[-79.2481,33.7844],[-79.2609,33.8189],[-79.2488,33.8312],[-79.2641,33.8425],[-79.256,33.8654],[-79.2636,33.8925],[-79.2831,33.9007],[-79.2864,33.8952],[-79.2999,33.9038],[-79.3123,33.9182],[-79.3067,33.9239],[-79.3111,33.9299],[-79.3069,33.9348],[-79.317,33.9341],[-79.3116,33.9442],[-79.3334,33.9527],[-79.3301,33.9616],[-79.3388,33.9705]]]}},{"type":"Feature","id":"45053","properties":{"name":"Jasper"},"geometry":{"type":"Polygon","coordinates":[[[-81.2813,32.5564],[-81.0146,32.7531],[-80.9953,32.7305],[-80.9765,32.7209],[-80.9648,32.6951],[-80.9459,32.6873],[-80.95,32.6615],[-80.963,32.6522],[-80.9587,32.6425],[-80.929,32.6363],[-80.9024,32.6216],[-80.8697,32.6609],[-80.8561,32.6348],[-80.8483,32.6326],[-80.8499,32.6165],[-80.8365,32.6088],[-80.8315,32.5934],[-80.8392,32.5575],[-80.836,32.544],[-80.8477,32.5301],[-80.8202,32.4908],[-80.8177,32.4657],[-80.8339,32.4569],[-80.8502,32.4163],[-80.848,32.4116],[-80.8292,32.4115],[-80.8423,32.3947],[-80.8419,32.3849],[-80.8737,32.3691],[-80.8685,32.3637],[-80.8776,32.3459],[-80.8909,32.3475],[-80.8921,32.3537],[-80.9245,32.3503],[-80.9349,32.3001],[-81.0064,32.3065],[-80.9942,32.2906],[-80.9975,32.2813],[-80.9917,32.2675],[-81.0161,32.2443],[-81.0124,32.2182],[-80.9982,32.2046],[-80.9942,32.1974],[-81.0001,32.1961],[-80.9904,32.1902],[-80.9938,32.188],[-80.9885,32.1897],[-80.9869,32.1934],[-80.9766,32.1853],[-80.9624,32.185],[-80.9693,32.1762],[-80.9618,32.1795],[-80.9486,32.1691],[-80.9576,32.165],[-80.9505,32.1613],[-80.953,32.1416],[-80.961,32.1519],[-80.969,32.1477],[-80.958,32.1377],[-80.9615,32.1262],[-80.9469,32.1288],[-80.9413,32.1373],[-80.9285,32.1386],[-80.9212,32.1301],[-80.9095,32.1347],[-80.9073,32.131],[-80.9283,32.1214],[-80.8957,32.1077],[-80.9105,32.0799],[-80.8793,32.081],[-80.9075,32.0509],[-80.8895,32.0376],[-80.9251,32.0419],[-80.9539,32.0701],[-80.9835,32.0795],[-81.0043,32.1024],[-81.0381,32.0837],[-81.0883,32.0999],[-81.0912,32.1109],[-81.1154,32.1147],[-81.1199,32.134],[-81.1122,32.1508],[-81.1297,32.1659],[-81.1212,32.1749],[-81.1111,32.1727],[-81.1119,32.178],[-81.1205,32.1783],[-81.1216,32.1922],[-81.114,32.1954],[-81.1221,32.1955],[-81.1384,32.2193],[-81.1522,32.2223],[-81.1436,32.2293],[-81.1566,32.2439],[-81.1457,32.2515],[-81.1466,32.2628],[-81.1369,32.2661],[-81.1419,32.2717],[-81.1234,32.2751],[-81.127,32.2827],[-81.1199,32.2862],[-81.1229,32.3073],[-81.1331,32.309],[-81.1306,32.3254],[-81.1379,32.3287],[-81.1294,32.3416],[-81.1438,32.3515],[-81.146,32.345],[-81.1598,32.34],[-81.1548,32.3496],[-81.1738,32.3627],[-81.1679,32.3683],[-81.1818,32.3793],[-81.1787,32.3936],[-81.2055,32.4236],[-81.2084,32.437],[-81.1994,32.4442],[-81.2067,32.4481],[-81.2045,32.4528],[-81.1975,32.4491],[-81.187,32.4636],[-81.2,32.468],[-81.2336,32.4985],[-81.2387,32.507],[-81.2334,32.518],[-81.2529,32.5183],[-81.2799,32.5366],[-81.275,32.5448],[-81.2813,32.5564]]]}},{"type":"Feature","id":"45055","properties":{"name":"Kershaw"},"geometry":{"type":"Polygon","coordinates":[[[-80.8792,34.4578],[-80.7433,34.5399],[-80.7377,34.5395],[-80.7456,34.5126],[-80.7395,34.5056],[-80.7456,34.4912],[-80.74,34.48],[-80.7136,34.4873],[-80.7092,34.5051],[-80.6982,34.516],[-80.6891,34.5153],[-80.6761,34.4931],[-80.6584,34.4786],[-80.6452,34.4837],[-80.6456,34.4915],[-80.6322,34.4914],[-80.6321,34.4806],[-80.6281,34.4824],[-80.6227,34.4915],[-80.6296,34.4912],[-80.6296,34.4987],[-80.6136,34.4999],[-80.6104,34.4888],[-80.5958,34.5021],[-80.5794,34.4846],[-80.5489,34.4933],[-80.544,34.5075],[-80.5303,34.5037],[-80.5239,34.5098],[-80.536,34.5339],[-80.5435,34.5374],[-80.5507,34.56],[-80.4084,34.6148],[-80.3834,34.5922],[-80.3723,34.5468],[-80.3548,34.5311],[-80.3536,34.5209],[-80.3303,34.5095],[-80.3285,34.4524],[-80.3227,34.4489],[-80.3263,34.4374],[-80.3211,34.4262],[-80.3114,34.4243],[-80.3022,34.3998],[-80.2855,34.3937],[-80.284,34.3777],[-80.2869,34.3646],[-80.3261,34.3442],[-80.3251,34.3393],[-80.3638,34.3395],[-80.3658,34.3282],[-80.353,34.3033],[-80.382,34.3052],[-80.4374,34.2845],[-80.4241,34.2507],[-80.433,34.2489],[-80.4308,34.227],[-80.4452,34.206],[-80.4545,34.208],[-80.4524,34.199],[-80.4646,34.1786],[-80.5801,34.0999],[-80.6185,34.1092],[-80.6162,34.0996],[-80.6356,34.0977],[-80.6588,34.0859],[-80.7036,34.081],[-80.7193,34.069],[-80.8691,34.1829],[-80.7699,34.3771],[-80.7836,34.3888],[-80.7832,34.4065],[-80.7935,34.4133],[-80.8332,34.4148],[-80.8792,34.4578]]]}},{"type":"Feature","id":"45057","properties":{"name":"Lancaster"},"geometry":{"type":"Polygon","coordinates":[[[-80.9093,35.0176],[-80.9031,35.0186],[-80.8973,35.0353],[-80.9059,35.0468],[-80.8996,35.0599],[-80.9071,35.0663],[-80.9062,35.0764],[-80.782,34.9358],[-80.7975,34.8198],[-80.5617,34.8175],[-80.5524,34.7919],[-80.5335,34.7829],[-80.5298,34.7711],[-80.5147,34.7666],[-80.5162,34.7589],[-80.4856,34.7174],[-80.4885,34.7046],[-80.4752,34.6992],[-80.4608,34.677],[-80.4503,34.6758],[-80.4534,34.6717],[-80.4394,34.6638],[-80.4402,34.658],[-80.4318,34.66],[-80.435,34.6421],[-80.4139,34.6278],[-80.4192,34.62],[-80.4084,34.6148],[-80.5507,34.56],[-80.5435,34.5374],[-80.536,34.5339],[-80.5239,34.5098],[-80.5303,34.5037],[-80.544,34.5075],[-80.5489,34.4933],[-80.5794,34.4846],[-80.5958,34.5021],[-80.6104,34.4888],[-80.6136,34.4999],[-80.6296,34.4987],[-80.6296,34.4912],[-80.6227,34.4915],[-80.6281,34.4824],[-80.6321,34.4806],[-80.6322,34.4914],[-80.6456,34.4915],[-80.6452,34.4837],[-80.6584,34.4786],[-80.6761,34.4931],[-80.6891,34.5153],[-80.6982,34.516],[-80.7092,34.5051],[-80.7136,34.4873],[-80.74,34.48],[-80.7456,34.4912],[-80.7395,34.5056],[-80.7456,34.5126],[-80.7377,34.5395],[-80.7433,34.5399],[-80.8792,34.4578],[-80.8987,34.4867],[-80.8817,34.5001],[-80.8754,34.5297],[-80.8784,34.5463],[-80.873,34.553],[-80.8783,34.5811],[-80.8922,34.598],[-80.8893,34.6182],[-80.8965,34.6352],[-80.8875,34.6526],[-80.8886,34.6686],[-80.8599,34.7002],[-80.8777,34.7439],[-80.8764,34.7885],[-80.8989,34.8237],[-80.8669,34.8477],[-80.8801,34.8715],[-80.8789,34.901],[-80.8651,34.9239],[-80.874,34.9654],[-80.8847,34.9662],[-80.8857,34.9915],[-80.894,34.9932],[-80.9025,35.006],[-80.8993,35.0114],[-80.9093,35.0176]]]}},{"type":"Feature","id":"45059","properties":{"name":"Laurens"},"geometry":{"type":"Polygon","coordinates":[[[-82.3147,34.4726],[-82.3139,34.4843],[-82.2361,34.5353],[-82.2348,34.5888],[-82.1456,34.7852],[-82.1319,34.7788],[-82.1354,34.7731],[-82.1152,34.7489],[-82.1094,34.7563],[-82.1011,34.744],[-82.0839,34.7448],[-82.0868,34.7383],[-82.0766,34.7258],[-82.0788,34.7194],[-82.0666,34.7152],[-82.0694,34.7023],[-82.0587,34.7017],[-82.0571,34.6952],[-82.0046,34.6623],[-81.978,34.6607],[-81.9699,34.6566],[-81.9699,34.6495],[-81.9519,34.6495],[-81.9103,34.603],[-81.8934,34.6013],[-81.8903,34.5901],[-81.8802,34.5967],[-81.8636,34.5802],[-81.8588,34.5922],[-81.8428,34.6006],[-81.8393,34.5932],[-81.8182,34.5882],[-81.8104,34.5781],[-81.8023,34.5808],[-81.7979,34.5739],[-81.7525,34.5636],[-81.7473,34.5683],[-81.7173,34.5515],[-81.7011,34.5594],[-81.6908,34.5527],[-81.6773,34.558],[-81.6776,34.5508],[-81.6585,34.5478],[-81.6586,34.5412],[-81.6436,34.5337],[-81.6497,34.5177],[-81.7032,34.4526],[-81.7225,34.4497],[-81.7345,34.4377],[-81.7471,34.4129],[-81.7784,34.3789],[-81.7826,34.3651],[-81.8126,34.3477],[-81.8363,34.3432],[-81.8498,34.333],[-81.8485,34.3235],[-81.8831,34.312],[-81.8953,34.3005],[-81.9114,34.2463],[-81.9267,34.2197],[-81.945,34.2031],[-81.9711,34.2222],[-81.9784,34.2381],[-82.0093,34.2425],[-82.0311,34.2624],[-82.0489,34.2673],[-82.0845,34.2998],[-82.1107,34.3081],[-82.1217,34.3034],[-82.134,34.3238],[-82.1687,34.3301],[-82.1732,34.3508],[-82.1849,34.365],[-82.2313,34.3925],[-82.2279,34.4022],[-82.2446,34.4034],[-82.2661,34.4332],[-82.277,34.436],[-82.2879,34.4536],[-82.3147,34.4726]]]}},{"type":"Feature","id":"45061","properties":{"name":"Lee"},"geometry":{"type":"Polygon","coordinates":[[[-80.4813,34.1126],[-80.4799,34.1687],[-80.4609,34.1833],[-80.4524,34.199],[-80.4545,34.208],[-80.4452,34.206],[-80.4375,34.2167],[-80.4308,34.227],[-80.433,34.2489],[-80.4241,34.2507],[-80.4374,34.2845],[-80.382,34.3052],[-80.353,34.3033],[-80.3658,34.3282],[-80.3638,34.3395],[-80.3251,34.3393],[-80.3261,34.3442],[-80.2887,34.3641],[-80.2756,34.3492],[-80.2529,34.3407],[-80.2436,34.3239],[-80.2063,34.3391],[-80.1913,34.3667],[-80.1851,34.3679],[-80.1772,34.3662],[-80.1702,34.316],[-80.1339,34.2824],[-80.1358,34.2725],[-80.1117,34.2286],[-80.1127,34.197],[-80.1586,34.1616],[-80.1345,34.1285],[-80.1072,34.1152],[-80.0842,34.0911],[-80.0574,34.0791],[-80.0319,34.0768],[-80.0006,34.0479],[-80.0268,34.0085],[-80.0704,34.0079],[-80.1804,33.952],[-80.1883,34.0049],[-80.2498,33.9922],[-80.267,34.0331],[-80.2949,34.0394],[-80.3032,34.0632],[-80.317,34.0783],[-80.3787,34.0807],[-80.3956,34.0895],[-80.4055,34.0814],[-80.4813,34.1126]]]}},{"type":"Feature","id":"45063","properties":{"name":"Lexington"},"geometry":{"type":"Polygon","coordinates":[[[-81.5713,33.8775],[-81.4655,34.0873],[-81.4449,34.0777],[-81.4249,34.083],[-81.4028,34.0708],[-81.3901,34.0753],[-81.4033,34.0979],[-81.4222,34.11],[-81.4209,34.1155],[-81.4372,34.13],[-81.4038,34.1777],[-81.3748,34.179],[-81.3523,34.1967],[-81.339,34.1976],[-81.3145,34.1869],[-81.3023,34.1624],[-81.315,34.1461],[-81.2758,34.0974],[-81.2334,34.1018],[-81.1729,34.0905],[-81.132,34.0623],[-81.0975,34.0177],[-81.073,34.0065],[-81.0649,34.0086],[-81.0509,33.9958],[-81.0458,33.9766],[-81.017,33.9309],[-81.0301,33.9136],[-81.0088,33.9041],[-81.0214,33.8881],[-81.0123,33.8801],[-81.0379,33.8709],[-81.0475,33.7894],[-81.0592,33.7708],[-81.0585,33.7471],[-81.0361,33.7452],[-81.0329,33.7641],[-81.0235,33.7635],[-81.014,33.7812],[-80.9619,33.779],[-80.9246,33.7569],[-80.9456,33.7493],[-80.9557,33.7378],[-80.9915,33.7321],[-81.0423,33.7073],[-81.0868,33.6953],[-81.1873,33.6529],[-81.2655,33.6871],[-81.2701,33.6939],[-81.2905,33.6942],[-81.3107,33.7085],[-81.3645,33.7281],[-81.3813,33.7252],[-81.4152,33.7321],[-81.4267,33.7431],[-81.4357,33.7757],[-81.4606,33.7973],[-81.5153,33.8135],[-81.5464,33.8586],[-81.5611,33.8628],[-81.5713,33.8775]]]}},{"type":"Feature","id":"45067","properties":{"name":"Marion"},"geometry":{"type":"Polygon","coordinates":[[[-79.5719,34.1854],[-79.5457,34.2108],[-79.544,34.2252],[-79.5543,34.2476],[-79.5124,34.2575],[-79.4963,34.2748],[-79.4791,34.2786],[-79.4807,34.2881],[-79.411,34.3002],[-79.3803,34.3006],[-79.3054,34.2693],[-79.2944,34.277],[-79.2394,34.2543],[-79.2143,34.2555],[-79.1735,34.2875],[-79.1266,34.2517],[-79.1348,34.241],[-79.1267,34.2361],[-79.1357,34.2291],[-79.1341,34.2153],[-79.1422,34.2139],[-79.1451,34.2061],[-79.1539,34.2072],[-79.1736,34.1795],[-79.1769,34.1848],[-79.1929,34.1751],[-79.1973,34.1587],[-79.2075,34.1548],[-79.2058,34.133],[-79.2193,34.1262],[-79.2209,34.1077],[-79.2301,34.1088],[-79.2501,34.0904],[-79.2481,34.0795],[-79.2396,34.0768],[-79.2483,34.0664],[-79.2478,34.0571],[-79.2651,34.044],[-79.3076,34.0277],[-79.3072,34.0059],[-79.3151,33.9965],[-79.3285,34.0002],[-79.3325,33.995],[-79.3284,33.9868],[-79.3388,33.9705],[-79.3301,33.9616],[-79.3334,33.9527],[-79.3116,33.9442],[-79.317,33.9341],[-79.3069,33.9348],[-79.3111,33.9299],[-79.3067,33.9239],[-79.3123,33.9182],[-79.2999,33.9038],[-79.2864,33.8952],[-79.2831,33.9007],[-79.2636,33.8925],[-79.256,33.8654],[-79.2641,33.8425],[-79.2488,33.8312],[-79.2585,33.8252],[-79.2603,33.8149],[-79.2355,33.7644],[-79.2182,33.7551],[-79.2204,33.7483],[-79.1959,33.7279],[-79.1903,33.7058],[-79.1994,33.7101],[-79.1962,33.7013],[-79.2128,33.7001],[-79.218,33.7058],[-79.2176,33.701],[-79.2389,33.6944],[-79.2493,33.697],[-79.2424,33.7059],[-79.2676,33.7034],[-79.265,33.7103],[-79.2751,33.7089],[-79.2711,33.7216],[-79.2864,33.7176],[-79.2916,33.729],[-79.2862,33.7374],[-79.294,33.7411],[-79.2933,33.7523],[-79.3233,33.7887],[-79.3253,33.802],[-79.3173,33.7993],[-79.3141,33.8167],[-79.3195,33.8225],[-79.3152,33.8268],[-79.3369,33.8326],[-79.332,33.8366],[-79.3398,33.8415],[-79.3492,33.8421],[-79.3538,33.8341],[-79.3535,33.8412],[-79.3683,33.8429],[-79.3888,33.8649],[-79.3895,33.8732],[-79.4098,33.8853],[-79.4004,33.8922],[-79.429,33.8978],[-79.4522,33.9148],[-79.452,33.9246],[-79.4596,33.9208],[-79.4629,33.9318],[-79.4737,33.93],[-79.4754,33.938],[-79.4917,33.9465],[-79.4815,33.9647],[-79.4998,33.9713],[-79.5169,33.994],[-79.5089,34.0037],[-79.5114,34.0409],[-79.5359,34.0761],[-79.5303,34.0793],[-79.5291,34.1002],[-79.5153,34.0972],[-79.5198,34.1024],[-79.5145,34.1055],[-79.5246,34.1156],[-79.5172,34.1268],[-79.5325,34.1263],[-79.5326,34.1357],[-79.5416,34.1392],[-79.544,34.1517],[-79.569,34.1751],[-79.5719,34.1854]]]}},{"type":"Feature","id":"45069","properties":{"name":"Marlboro"},"geometry":{"type":"Polygon","coordinates":[[[-79.9343,34.8013],[-79.9307,34.8066],[-79.6753,34.8047],[-79.45,34.621],[-79.6334,34.298],[-79.6578,34.3052],[-79.6604,34.3223],[-79.6927,34.3565],[-79.6737,34.3711],[-79.6894,34.3818],[-79.6909,34.3897],[-79.6834,34.3991],[-79.6997,34.4066],[-79.7035,34.3993],[-79.7126,34.4021],[-79.7213,34.3925],[-79.7184,34.4171],[-79.7276,34.417],[-79.7506,34.4368],[-79.7518,34.4665],[-79.7317,34.4664],[-79.7324,34.4771],[-79.7218,34.4854],[-79.7266,34.4955],[-79.7544,34.5041],[-79.7521,34.5135],[-79.7633,34.5191],[-79.7705,34.5085],[-79.7691,34.4965],[-79.7829,34.4978],[-79.788,34.4843],[-79.7964,34.4916],[-79.8061,34.4846],[-79.8334,34.5103],[-79.8327,34.5281],[-79.8088,34.5847],[-79.8062,34.6058],[-79.7841,34.6073],[-79.7778,34.6143],[-79.8006,34.6377],[-79.7956,34.6476],[-79.8169,34.6587],[-79.8305,34.6572],[-79.8408,34.6695],[-79.8594,34.6778],[-79.893,34.742],[-79.9262,34.7665],[-79.9343,34.8013]]]}},{"type":"Feature","id":"45065","properties":{"name":"McCormick"},"geometry":{"type":"Polygon","coordinates":[[[-82.5945,34.0139],[-82.5305,34.0719],[-82.4996,34.0721],[-82.4836,34.0812],[-82.4527,34.0603],[-82.3766,34.0574],[-82.3269,34.0641],[-82.3059,33.9718],[-82.2437,34.0179],[-82.2139,33.9861],[-82.1748,33.9724],[-82.1511,33.9865],[-82.0761,33.9788],[-82.0451,33.9834],[-82.047,33.9532],[-82.1556,33.9289],[-82.1483,33.9028],[-82.1591,33.898],[-82.1546,33.8817],[-82.1137,33.8299],[-82.139,33.8185],[-82.1341,33.8102],[-82.1502,33.7938],[-82.1479,33.7898],[-82.1596,33.7914],[-82.1533,33.7826],[-82.1729,33.7647],[-82.1643,33.7413],[-82.182,33.7305],[-82.1829,33.7237],[-82.1658,33.6901],[-82.1453,33.6861],[-82.1482,33.6765],[-82.1345,33.6739],[-82.1309,33.6588],[-82.1105,33.6553],[-82.0955,33.6339],[-82.1153,33.5966],[-82.1291,33.5899],[-82.1429,33.5943],[-82.1563,33.6086],[-82.1762,33.6138],[-82.1966,33.6306],[-82.1998,33.6618],[-82.2346,33.7002],[-82.2475,33.7526],[-82.2975,33.783],[-82.3002,33.8006],[-82.4022,33.8647],[-82.4249,33.8641],[-82.4551,33.8817],[-82.4929,33.9098],[-82.513,33.937],[-82.5245,33.9434],[-82.5568,33.9454],[-82.5805,33.9821],[-82.5752,33.9914],[-82.5886,33.9998],[-82.5945,34.0139]]]}},{"type":"Feature","id":"45071","properties":{"name":"Newberry"},"geometry":{"type":"Polygon","coordinates":[[[-81.9437,34.2061],[-81.9267,34.2197],[-81.9114,34.2463],[-81.8953,34.3005],[-81.8831,34.312],[-81.8485,34.3235],[-81.8498,34.333],[-81.8363,34.3432],[-81.8126,34.3477],[-81.7826,34.3651],[-81.7784,34.3789],[-81.7471,34.4129],[-81.7345,34.4377],[-81.7225,34.4497],[-81.7032,34.4526],[-81.6497,34.5177],[-81.6436,34.5337],[-81.6272,34.5217],[-81.6178,34.5252],[-81.6134,34.5138],[-81.6027,34.5129],[-81.5884,34.4968],[-81.5529,34.4768],[-81.5569,34.4631],[-81.5463,34.4619],[-81.5511,34.4522],[-81.541,34.445],[-81.4846,34.49],[-81.4684,34.4942],[-81.4573,34.487],[-81.4449,34.488],[-81.4397,34.4969],[-81.4232,34.4944],[-81.4224,34.4822],[-81.4125,34.4699],[-81.4212,34.4538],[-81.3965,34.3898],[-81.3715,34.3504],[-81.359,34.3105],[-81.3396,34.2922],[-81.3453,34.2792],[-81.3423,34.2669],[-81.3169,34.2395],[-81.3453,34.205],[-81.339,34.1976],[-81.3523,34.1967],[-81.3748,34.179],[-81.4038,34.1777],[-81.4372,34.13],[-81.3882,34.0793],[-81.4028,34.0708],[-81.4249,34.083],[-81.4449,34.0777],[-81.4655,34.0873],[-81.472,34.0766],[-81.4851,34.0823],[-81.5025,34.0739],[-81.5139,34.0823],[-81.5389,34.0817],[-81.5473,34.0934],[-81.5713,34.0997],[-81.5896,34.1172],[-81.6005,34.1129],[-81.6076,34.1232],[-81.6227,34.1263],[-81.637,34.1462],[-81.6727,34.156],[-81.6915,34.1729],[-81.7155,34.1752],[-81.7316,34.1876],[-81.7492,34.1771],[-81.7689,34.1749],[-81.7788,34.1647],[-81.7856,34.1659],[-81.7842,34.1727],[-81.8273,34.1728],[-81.8273,34.1822],[-81.8389,34.1722],[-81.8606,34.1794],[-81.8764,34.1678],[-81.8792,34.1579],[-81.8667,34.1381],[-81.8774,34.1369],[-81.8982,34.1476],[-81.8986,34.1564],[-81.9077,34.1619],[-81.9054,34.1781],[-81.917,34.177],[-81.9205,34.192],[-81.9391,34.1955],[-81.9437,34.2061]]]}},{"type":"Feature","id":"45073","properties":{"name":"Oconee"},"geometry":{"type":"Polygon","coordinates":[[[-83.3539,34.6992],[-83.3466,34.7042],[-83.3528,34.7174],[-83.3491,34.7366],[-83.339,34.7384],[-83.3189,34.7583],[-83.3239,34.7897],[-83.3012,34.804],[-83.3067,34.8148],[-83.3031,34.8187],[-83.2961,34.8131],[-83.2887,34.8247],[-83.2767,34.8169],[-83.2683,34.8211],[-83.2673,34.8324],[-83.2724,34.8347],[-83.2663,34.849],[-83.2502,34.8446],[-83.2533,34.8559],[-83.2469,34.855],[-83.2467,34.867],[-83.2347,34.8707],[-83.2431,34.8774],[-83.2199,34.8781],[-83.2145,34.8885],[-83.2063,34.8797],[-83.2031,34.8939],[-83.1968,34.8907],[-83.1944,34.8996],[-83.1893,34.8973],[-83.1691,34.9188],[-83.1572,34.9149],[-83.1562,34.931],[-83.1406,34.9249],[-83.1276,34.9385],[-83.1208,34.933],[-83.1117,34.9359],[-83.1276,34.9495],[-83.1266,34.9549],[-83.114,34.9509],[-83.1221,34.9643],[-83.0984,34.9911],[-83.1096,35.0012],[-82.8976,35.056],[-82.905,35.0421],[-82.9183,35.0361],[-82.9138,35.0295],[-82.9209,35.0157],[-82.9121,35.0095],[-82.9303,35.0093],[-82.9436,34.9875],[-82.9341,34.9766],[-82.9159,34.9724],[-82.9192,34.9599],[-82.9088,34.9544],[-82.9157,34.9471],[-82.9033,34.935],[-82.9089,34.9213],[-82.9014,34.9146],[-82.9062,34.9065],[-82.901,34.8954],[-82.9093,34.8947],[-82.8961,34.8369],[-82.9011,34.8232],[-82.8966,34.8029],[-82.8881,34.8077],[-82.8872,34.7952],[-82.873,34.79],[-82.8809,34.7869],[-82.8932,34.7654],[-82.889,34.7608],[-82.9002,34.7411],[-82.8581,34.7293],[-82.857,34.7132],[-82.8656,34.7022],[-82.8494,34.6959],[-82.8538,34.6899],[-82.8486,34.6831],[-82.8555,34.6784],[-82.8512,34.6685],[-82.8324,34.66],[-82.8401,34.6525],[-82.8229,34.6545],[-82.8376,34.6468],[-82.8325,34.6437],[-82.8396,34.6451],[-82.8373,34.6393],[-82.8274,34.6424],[-82.8366,34.6327],[-82.8382,34.6373],[-82.8567,34.6323],[-82.8522,34.6213],[-82.84,34.6233],[-82.8529,34.6148],[-82.8591,34.6215],[-82.867,34.6172],[-82.8553,34.6089],[-82.9951,34.4725],[-83.0334,34.4831],[-83.051,34.4935],[-83.0545,34.5029],[-83.0695,34.5021],[-83.0872,34.5159],[-83.0779,34.5248],[-83.1029,34.5326],[-83.1102,34.5471],[-83.1243,34.555],[-83.1229,34.5601],[-83.1405,34.5624],[-83.1432,34.5734],[-83.1587,34.579],[-83.1546,34.5882],[-83.1703,34.5924],[-83.1701,34.5996],[-83.16,34.6035],[-83.1808,34.6075],[-83.1974,34.6032],[-83.2088,34.6107],[-83.2313,34.6112],[-83.2435,34.6182],[-83.2407,34.6245],[-83.2545,34.6371],[-83.2932,34.6543],[-83.3046,34.6696],[-83.3414,34.6814],[-83.3401,34.6915],[-83.3539,34.6992]]]}},{"type":"Feature","id":"45075","properties":{"name":"Orangeburg"},"geometry":{"type":"Polygon","coordinates":[[[-81.3735,33.4905],[-81.1873,33.6529],[-81.0868,33.6953],[-81.0429,33.7071],[-80.9655,33.6253],[-80.9421,33.6419],[-80.9398,33.6088],[-80.9197,33.6055],[-80.8814,33.6197],[-80.8076,33.6041],[-80.6941,33.5219],[-80.694,33.506],[-80.659,33.471],[-80.6273,33.4738],[-80.6166,33.466],[-80.6113,33.4704],[-80.625,33.4888],[-80.6197,33.4932],[-80.6247,33.4989],[-80.5882,33.5386],[-80.6103,33.5507],[-80.6036,33.5554],[-80.5523,33.5654],[-80.5514,33.5587],[-80.5401,33.5618],[-80.5033,33.5358],[-80.5056,33.5526],[-80.485,33.56],[-80.4684,33.5411],[-80.4554,33.5471],[-80.4475,33.5405],[-80.4473,33.5245],[-80.468,33.525],[-80.4677,33.5162],[-80.4564,33.5122],[-80.4611,33.5043],[-80.4391,33.502],[-80.437,33.478],[-80.3938,33.4458],[-80.3545,33.4304],[-80.3236,33.4312],[-80.282,33.4484],[-80.2679,33.4379],[-80.2399,33.4547],[-80.2391,33.44],[-80.2223,33.4437],[-80.2226,33.3913],[-80.2299,33.3916],[-80.2302,33.3841],[-80.2385,33.3912],[-80.2416,33.3831],[-80.2396,33.3522],[-80.2479,33.3382],[-80.2538,33.2993],[-80.3019,33.2675],[-80.3172,33.2641],[-80.3489,33.278],[-80.3591,33.272],[-80.3619,33.2574],[-80.3942,33.2647],[-80.4362,33.26],[-80.4846,33.28],[-80.4952,33.3025],[-80.4947,33.3238],[-80.5028,33.3345],[-80.7979,33.1769],[-80.817,33.1875],[-80.8247,33.2016],[-80.8375,33.2037],[-80.8374,33.2109],[-80.8439,33.2121],[-80.8389,33.2192],[-80.8468,33.2211],[-80.8462,33.2383],[-80.8558,33.2377],[-80.863,33.2511],[-80.8876,33.2579],[-80.8852,33.2629],[-80.926,33.2868],[-80.9292,33.2956],[-80.9509,33.3052],[-80.9487,33.3093],[-80.9619,33.3081],[-80.9683,33.3188],[-80.9797,33.3181],[-81.0048,33.3363],[-81.0247,33.3389],[-81.031,33.3489],[-81.0478,33.3492],[-81.0886,33.3796],[-81.1113,33.3809],[-81.164,33.4093],[-81.1895,33.4117],[-81.2061,33.4373],[-81.2537,33.4462],[-81.2969,33.4799],[-81.3442,33.4809],[-81.3735,33.4905]]]}},{"type":"Feature","id":"45077","properties":{"name":"Pickens"},"geometry":{"type":"MultiPolygon","coordinates":[[[[-82.844,34.6195],[-82.843,34.621],[-82.842,34.6215],[-82.844,34.6195]]],[[[-82.8649,34.617],[-82.8591,34.6215],[-82.8529,34.6148],[-82.8451,34.6185],[-82.8578,34.6088],[-82.8649,34.617]]],[[[-82.9434,34.9885],[-82.9303,35.0093],[-82.9121,35.0095],[-82.9209,35.0157],[-82.9138,35.0295],[-82.9183,35.0361],[-82.905,35.0421],[-82.8976,35.056],[-82.7879,35.085],[-82.7764,35.0813],[-82.782,35.0668],[-82.7641,35.0682],[-82.7494,35.0476],[-82.7384,35.047],[-82.7078,35.062],[-82.6596,35.0671],[-82.6414,35.0601],[-82.6114,35.0723],[-82.5716,35.0746],[-82.5743,35.0646],[-82.5905,35.0637],[-82.5977,35.0543],[-82.5982,35.0385],[-82.5903,35.0442],[-82.5857,35.0324],[-82.5923,35.0277],[-82.5883,35.021],[-82.5956,35.0101],[-82.5379,35.0155],[-82.5432,35.0046],[-82.5341,34.9838],[-82.5481,34.9787],[-82.5274,34.9659],[-82.5182,34.9204],[-82.5008,34.9101],[-82.5028,34.9037],[-82.4939,34.8961],[-82.4965,34.8876],[-82.4877,34.8858],[-82.489,34.8614],[-82.483,34.8579],[-82.4891,34.8411],[-82.4808,34.8425],[-82.487,34.8306],[-82.4764,34.8279],[-82.7876,34.6727],[-82.84,34.6233],[-82.8522,34.6213],[-82.8567,34.6323],[-82.8382,34.6373],[-82.8366,34.6327],[-82.8274,34.6424],[-82.8373,34.6393],[-82.8396,34.6451],[-82.8325,34.6437],[-82.8376,34.6468],[-82.8229,34.6545],[-82.8401,34.6525],[-82.8324,34.66],[-82.8512,34.6685],[-82.8555,34.6784],[-82.8486,34.6831],[-82.8538,34.6899],[-82.8494,34.6959],[-82.8656,34.7022],[-82.857,34.7132],[-82.8581,34.7293],[-82.9002,34.7411],[-82.889,34.7608],[-82.8932,34.7654],[-82.8809,34.7869],[-82.873,34.79],[-82.8872,34.7952],[-82.8881,34.8077],[-82.8966,34.8029],[-82.9011,34.8232],[-82.8961,34.8369],[-82.9093,34.8947],[-82.901,34.8954],[-82.9062,34.9065],[-82.9014,34.9146],[-82.9089,34.9213],[-82.9033,34.935],[-82.9157,34.9471],[-82.9088,34.9544],[-82.9192,34.9599],[-82.9159,34.9724],[-82.9368,34.9781],[-82.9434,34.9885]]]]}},{"type":"Feature","id":"45079","properties":{"name":"Richland"},"geometry":{"type":"Polygon","coordinates":[[[-81.3453,34.205],[-81.3169,34.2395],[-81.2966,34.2374],[-81.2796,34.2306],[-81.2513,34.2029],[-81.2264,34.2057],[-81.1783,34.1746],[-81.1795,34.1866],[-81.1684,34.1977],[-81.1812,34.2203],[-81.0959,34.2139],[-81.0833,34.2248],[-81.0768,34.2209],[-81.0708,34.2251],[-81.0699,34.2322],[-81.0612,34.228],[-81.0575,34.2337],[-81.0392,34.2325],[-80.9619,34.252],[-80.8259,34.2688],[-80.8685,34.1817],[-80.8514,34.1741],[-80.7193,34.069],[-80.7036,34.081],[-80.6588,34.0859],[-80.6356,34.0977],[-80.6162,34.0996],[-80.6362,34.0802],[-80.6195,34.0823],[-80.6312,34.0682],[-80.6127,34.0631],[-80.6127,34.0562],[-80.6064,34.058],[-80.6126,34.0518],[-80.601,34.0394],[-80.608,34.0293],[-80.6021,34.0254],[-80.6155,34.0245],[-80.628,34.0119],[-80.6253,34.0037],[-80.6373,34.0076],[-80.6354,34.0014],[-80.6466,33.999],[-80.6393,33.9934],[-80.6411,33.9833],[-80.6304,33.9758],[-80.6331,33.9665],[-80.6158,33.9655],[-80.6291,33.9418],[-80.6202,33.9424],[-80.6228,33.9366],[-80.6167,33.9364],[-80.6306,33.9337],[-80.6262,33.9299],[-80.6341,33.9173],[-80.6257,33.8985],[-80.615,33.8919],[-80.6204,33.8887],[-80.6256,33.8935],[-80.6208,33.8825],[-80.625,33.8808],[-80.6196,33.8787],[-80.623,33.8604],[-80.6335,33.8527],[-80.6164,33.8349],[-80.6203,33.831],[-80.6157,33.8145],[-80.5983,33.8045],[-80.6054,33.8047],[-80.5962,33.7864],[-80.603,33.7853],[-80.5977,33.7775],[-80.6057,33.7718],[-80.605,33.7585],[-80.6187,33.7436],[-80.6328,33.7437],[-80.6564,33.7614],[-80.6547,33.7735],[-80.6866,33.756],[-80.6874,33.7611],[-80.7054,33.7598],[-80.7044,33.7665],[-80.7123,33.7712],[-80.7154,33.7605],[-80.7268,33.7683],[-80.7385,33.7564],[-80.7363,33.7674],[-80.745,33.7764],[-80.7516,33.7706],[-80.7473,33.7617],[-80.7562,33.7648],[-80.7597,33.774],[-80.7849,33.761],[-80.783,33.7689],[-80.8112,33.7797],[-80.828,33.7762],[-80.8225,33.787],[-80.8335,33.7855],[-80.8375,33.7939],[-80.8658,33.8027],[-80.8748,33.8155],[-80.8985,33.8088],[-80.9156,33.8114],[-80.9153,33.8339],[-80.9362,33.8264],[-80.9537,33.8427],[-80.9883,33.8498],[-80.9862,33.8575],[-81.0021,33.8631],[-80.9982,33.8768],[-81.0207,33.8847],[-81.0201,33.8933],[-81.0088,33.9041],[-81.0301,33.9136],[-81.017,33.9309],[-81.0547,34.0008],[-81.0975,34.0177],[-81.132,34.0623],[-81.1729,34.0905],[-81.2334,34.1018],[-81.2758,34.0974],[-81.315,34.1461],[-81.3023,34.1624],[-81.3145,34.1869],[-81.3294,34.1904],[-81.3453,34.205]]]}},{"type":"Feature","id":"45081","properties":{"name":"Saluda"},"geometry":{"type":"Polygon","coordinates":[[[-82.0103,33.964],[-81.9888,33.9984],[-81.9473,34.0371],[-81.9158,34.091],[-81.9003,34.095],[-81.897,34.1069],[-81.8685,34.1324],[-81.8667,34.1409],[-81.8792,34.1579],[-81.8764,34.1678],[-81.8606,34.1794],[-81.8389,34.1722],[-81.8273,34.1822],[-81.8273,34.1728],[-81.7842,34.1727],[-81.7856,34.1659],[-81.7788,34.1647],[-81.7689,34.1749],[-81.7492,34.1771],[-81.7316,34.1876],[-81.7155,34.1752],[-81.6915,34.1729],[-81.6727,34.156],[-81.637,34.1462],[-81.6227,34.1263],[-81.6076,34.1232],[-81.6005,34.1129],[-81.5896,34.1172],[-81.5713,34.0997],[-81.5473,34.0934],[-81.5389,34.0817],[-81.5139,34.0823],[-81.5025,34.0739],[-81.4851,34.0823],[-81.472,34.0766],[-81.5713,33.8775],[-81.6518,33.8145],[-81.7766,33.846],[-81.8234,33.8674],[-81.8368,33.8665],[-81.8704,33.892],[-81.8946,33.9754],[-81.932,33.9769],[-82.0103,33.964]]]}},{"type":"Feature","id":"45083","properties":{"name":"Spartanburg"},"geometry":{"type":"Polygon","coordinates":[[[-82.2265,34.8511],[-82.2159,35.196],[-81.8747,35.1841],[-81.8061,35.0572],[-81.8076,35.0356],[-81.7943,35.0354],[-81.7857,35.0193],[-81.7552,34.9306],[-81.7347,34.9328],[-81.7299,34.9218],[-81.7141,34.9129],[-81.7828,34.8372],[-81.8204,34.6865],[-81.8519,34.5948],[-81.8636,34.5802],[-81.8712,34.5929],[-81.8802,34.5967],[-81.8903,34.5901],[-81.8934,34.6013],[-81.9103,34.603],[-81.9519,34.6495],[-81.9699,34.6495],[-81.9699,34.6566],[-81.978,34.6607],[-82.0046,34.6623],[-82.0571,34.6952],[-82.0587,34.7017],[-82.0694,34.7023],[-82.0666,34.7152],[-82.0788,34.7194],[-82.0766,34.7258],[-82.0868,34.7383],[-82.0839,34.7448],[-82.1011,34.744],[-82.1094,34.7563],[-82.1152,34.7489],[-82.1354,34.7731],[-82.1319,34.7788],[-82.1478,34.7861],[-82.1535,34.782],[-82.157,34.7924],[-82.1688,34.7971],[-82.1702,34.8026],[-82.1625,34.8026],[-82.1652,34.8069],[-82.1734,34.806],[-82.194,34.8331],[-82.2194,34.8534],[-82.2265,34.8511]]]}},{"type":"Feature","id":"45085","properties":{"name":"Sumter"},"geometry":{"type":"Polygon","coordinates":[[[-80.6466,33.999],[-80.6354,34.0014],[-80.6373,34.0076],[-80.6253,34.0037],[-80.628,34.0119],[-80.6155,34.0245],[-80.6021,34.0254],[-80.608,34.0293],[-80.601,34.0394],[-80.6126,34.0518],[-80.6064,34.058],[-80.6127,34.0562],[-80.6127,34.0631],[-80.6312,34.0682],[-80.6195,34.0823],[-80.6362,34.0802],[-80.6324,34.0894],[-80.6209,34.09],[-80.6157,34.0968],[-80.6203,34.1074],[-80.5801,34.0999],[-80.4799,34.1687],[-80.4813,34.1126],[-80.4055,34.0814],[-80.3956,34.0895],[-80.3787,34.0807],[-80.317,34.0783],[-80.3032,34.0632],[-80.2949,34.0394],[-80.267,34.0331],[-80.2498,33.9922],[-80.1883,34.0049],[-80.1804,33.952],[-80.0704,34.0079],[-80.0268,34.0085],[-80.0006,34.0479],[-79.9598,34.0214],[-79.9469,34.023],[-79.9475,34.0181],[-79.9362,34.018],[-79.9246,34.0075],[-79.9109,34.0065],[-79.8935,33.988],[-80.1216,33.8696],[-80.1355,33.8688],[-80.1954,33.839],[-80.2554,33.8041],[-80.2712,33.7863],[-80.3971,33.7678],[-80.392,33.7156],[-80.4344,33.7119],[-80.4329,33.7212],[-80.4259,33.7241],[-80.4309,33.7383],[-80.4493,33.7375],[-80.4544,33.7135],[-80.4787,33.7143],[-80.4976,33.6743],[-80.5341,33.6439],[-80.5655,33.6647],[-80.5624,33.6784],[-80.5903,33.6848],[-80.5966,33.695],[-80.5931,33.7019],[-80.6153,33.7118],[-80.6297,33.7374],[-80.6056,33.7575],[-80.6088,33.7619],[-80.6016,33.7687],[-80.6057,33.7718],[-80.5977,33.7775],[-80.603,33.7853],[-80.5962,33.7864],[-80.6054,33.8047],[-80.5983,33.8045],[-80.6157,33.8145],[-80.6203,33.831],[-80.6164,33.8349],[-80.6335,33.8527],[-80.623,33.8604],[-80.6196,33.8787],[-80.625,33.8808],[-80.6208,33.8825],[-80.6256,33.8935],[-80.6204,33.8887],[-80.615,33.8919],[-80.6257,33.8985],[-80.6341,33.9173],[-80.6262,33.9299],[-80.6306,33.9337],[-80.6167,33.9364],[-80.6228,33.9366],[-80.6202,33.9424],[-80.6291,33.9418],[-80.6158,33.9655],[-80.6331,33.9665],[-80.6304,33.9758],[-80.6411,33.9833],[-80.6393,33.9934],[-80.6466,33.999]]]}},{"type":"Feature","id":"45087","properties":{"name":"Union"},"geometry":{"type":"Polygon","coordinates":[[[-81.8519,34.5948],[-81.8196,34.689],[-81.7828,34.8372],[-81.7141,34.9129],[-81.6984,34.9059],[-81.6853,34.913],[-81.6776,34.9009],[-81.6472,34.9005],[-81.6406,34.8801],[-81.6248,34.8739],[-81.5872,34.8875],[-81.5435,34.8699],[-81.5346,34.8796],[-81.5299,34.8676],[-81.5227,34.8773],[-81.5149,34.8771],[-81.4996,34.8678],[-81.4819,34.8665],[-81.4836,34.8563],[-81.4571,34.8392],[-81.488,34.8151],[-81.4813,34.8086],[-81.4691,34.811],[-81.4693,34.8028],[-81.4593,34.7975],[-81.4532,34.7609],[-81.4825,34.7444],[-81.4884,34.733],[-81.4794,34.7239],[-81.462,34.7265],[-81.4542,34.7209],[-81.4543,34.6752],[-81.442,34.6537],[-81.416,34.6336],[-81.4269,34.5785],[-81.4198,34.5666],[-81.4275,34.5295],[-81.4232,34.4944],[-81.4397,34.4969],[-81.4449,34.488],[-81.4573,34.487],[-81.4684,34.4942],[-81.4846,34.49],[-81.541,34.445],[-81.5511,34.4522],[-81.5463,34.4619],[-81.5569,34.4631],[-81.5529,34.4768],[-81.5884,34.4968],[-81.6027,34.5129],[-81.6134,34.5138],[-81.6178,34.5252],[-81.6272,34.5217],[-81.658,34.5406],[-81.6585,34.5478],[-81.6776,34.5508],[-81.6773,34.558],[-81.6908,34.5527],[-81.7011,34.5594],[-81.7173,34.5515],[-81.7473,34.5683],[-81.7525,34.5636],[-81.7979,34.5739],[-81.8023,34.5808],[-81.8104,34.5781],[-81.8182,34.5882],[-81.8393,34.5932],[-81.8428,34.6006],[-81.8519,34.5948]]]}},{"type":"Feature","id":"45089","properties":{"name":"Williamsburg"},"geometry":{"type":"Polygon","coordinates":[[[-80.1017,33.4969],[-79.9932,33.7045],[-79.9744,33.7216],[-79.9956,33.7679],[-79.9445,33.8102],[-79.9153,33.8186],[-79.8756,33.8852],[-79.8549,33.8917],[-79.8349,33.8826],[-79.7984,33.8356],[-79.7434,33.8351],[-79.7249,33.8146],[-79.6996,33.814],[-79.688,33.8049],[-79.6773,33.8147],[-79.6358,33.818],[-79.6349,33.8084],[-79.4965,33.7754],[-79.4712,33.7841],[-79.4415,33.7844],[-79.4187,33.7994],[-79.3972,33.8012],[-79.3869,33.8074],[-79.3852,33.8175],[-79.3704,33.8186],[-79.3522,33.8151],[-79.3404,33.8028],[-79.3314,33.8048],[-79.3201,33.7913],[-79.317,33.7799],[-79.3378,33.7746],[-79.3466,33.7553],[-79.41,33.6879],[-79.4425,33.596],[-79.4359,33.5725],[-79.4833,33.5368],[-79.4963,33.5175],[-79.5397,33.496],[-79.5901,33.4435],[-79.596,33.4215],[-79.6338,33.3726],[-79.6772,33.3368],[-79.6809,33.3196],[-79.6727,33.3107],[-79.677,33.3049],[-79.7096,33.3212],[-79.7348,33.3202],[-79.7554,33.3295],[-79.7817,33.364],[-79.7842,33.3761],[-79.807,33.3726],[-79.8139,33.3823],[-79.8548,33.4029],[-79.8613,33.4178],[-79.8787,33.4271],[-79.8685,33.4293],[-79.8682,33.4345],[-79.8763,33.4353],[-79.8941,33.4537],[-79.9031,33.4504],[-79.9021,33.4553],[-79.9102,33.4557],[-79.9348,33.4777],[-79.9401,33.4757],[-79.9646,33.4986],[-79.9898,33.4983],[-79.9988,33.5067],[-80.0019,33.4947],[-80.0121,33.5052],[-80.0186,33.4983],[-80.0239,33.5063],[-80.0317,33.5009],[-80.0366,33.5068],[-80.0425,33.5009],[-80.0487,33.5064],[-80.0735,33.5072],[-80.1017,33.4969]]]}},{"type":"Feature","id":"45091","properties":{"name":"York"},"geometry":{"type":"Polygon","coordinates":[[[-81.4923,34.9472],[-81.4758,34.983],[-81.4847,34.9974],[-81.4806,35.0059],[-81.487,35.0351],[-81.4714,35.0481],[-81.4088,35.0471],[-81.4025,35.1369],[-81.3666,35.1649],[-81.0436,35.1499],[-81.051,35.1317],[-81.039,35.1263],[-81.0328,35.108],[-81.0521,35.0963],[-81.058,35.0732],[-81.0576,35.0624],[-81.0415,35.0447],[-80.935,35.1074],[-80.9062,35.0764],[-80.9071,35.0663],[-80.8996,35.0599],[-80.9059,35.0468],[-80.8973,35.0353],[-80.9031,35.0186],[-80.9095,35.0165],[-80.8993,35.0114],[-80.9025,35.006],[-80.894,34.9932],[-80.8857,34.9915],[-80.8847,34.9662],[-80.874,34.9654],[-80.8686,34.9507],[-80.8706,34.9344],[-80.8651,34.9239],[-80.8789,34.901],[-80.8801,34.8715],[-80.8666,34.8485],[-80.8739,34.8385],[-80.8968,34.8284],[-80.8982,34.8208],[-81.4766,34.8226],[-81.4618,34.831],[-81.4533,34.8463],[-81.4684,34.8652],[-81.4787,34.898],[-81.4701,34.9136],[-81.4773,34.9261],[-81.4735,34.9355],[-81.4923,34.9472]]]}}]}